{
"type": "FeatureCollection",
"name": "ahmedabad_synthetic_cadastral",
"crs": { "type": "name", "properties": { "name": "urn:ogc:def:crs:OGC:1.3:CRS84" } },
"features": [
{ "type": "Feature", "properties": { "plot_id": "AD-AH-TP-00001", "land_use": "Institutional", "fill_color": "#4575b4", "owner_name": "Owner 1", "area_sq_meters": 44355 }, "geometry": { "type": "Polygon", "coordinates": [ [ [ 72.45, 23.02 ], [ 72.452, 23.02 ], [ 72.452, 23.022 ], [ 72.45, 23.022 ], [ 72.45, 23.02 ] ] ] } },
{ "type": "Feature", "properties": { "plot_id": "AD-AH-TP-00002", "land_use": "Commercial", "fill_color": "#d73027", "owner_name": "Owner 2", "area_sq_meters": 44355 }, "geometry": { "type": "Polygon", "coordinates": [ [ [ 72.452, 23.02 ], [ 72.454, 23.02 ], [ 72.454, 23.022 ], [ 72.452, 23.022 ], [ 72.452, 23.02 ] ] ] } },
{ "type": "Feature", "properties": { "plot_id": "AD-AH-TP-00003", "land_use": "Commercial", "fill_color": "#d73027", "owner_name": "Owner 3", "area_sq_meters": 44355 }, "geometry": { "type": "Polygon", "coordinates": [ [ [ 72.454, 23.02 ], [ 72.456, 23.02 ], [ 72.456, 23.022 ], [ 72.454, 23.022 ], [ 72.454, 23.02 ] ] ] } },
{ "type": "Feature", "properties": { "plot_id": "AD-AH-TP-00004", "land_use": "Commercial", "fill_color": "#d73027", "owner_name": "Owner 4", "area_sq_meters": 44355 }, "geometry": { "type": "Polygon", "coordinates": [ [ [ 72.456, 23.02 ], [ 72.458, 23.02 ], [ 72.458, 23.022 ], [ 72.456, 23.022 ], [ 72.456, 23.02 ] ] ] } },
{ "type": "Feature", "properties": { "plot_id": "AD-AH-TP-00005", "land_use": "Residential", "fill_color": "#fee08b", "owner_name": "Owner 5", "area_sq_meters": 44355 }, "geometry": { "type": "Polygon", "coordinates": [ [ [ 72.458, 23.02 ], [ 72.46, 23.02 ], [ 72.46, 23.022 ], [ 72.458, 23.022 ], [ 72.458, 23.02 ] ] ] } },
{ "type": "Feature", "properties": { "plot_id": "AD-AH-TP-00006", "land_use": "Commercial", "fill_color": "#d73027", "owner_name": "Owner 6", "area_sq_meters": 44355 }, "geometry": { "type": "Polygon", "coordinates": [ [ [ 72.46, 23.02 ], [ 72.462, 23.02 ], [ 72.462, 23.022 ], [ 72.46, 23.022 ], [ 72.46, 23.02 ] ] ] } },
{ "type": "Feature", "properties": { "plot_id": "AD-AH-TP-00007", "land_use": "Institutional", "fill_color": "#4575b4", "owner_name": "Owner 7", "area_sq_meters": 44355 }, "geometry": { "type": "Polygon", "coordinates": [ [ [ 72.462, 23.02 ], [ 72.464, 23.02 ], [ 72.464, 23.022 ], [ 72.462, 23.022 ], [ 72.462, 23.02 ] ] ] } },
{ "type": "Feature", "properties": { "plot_id": "AD-AH-TP-00008", "land_use": "Agricultural", "fill_color": "#66bd63", "owner_name": "Owner 8", "area_sq_meters": 44355 }, "geometry": { "type": "Polygon", "coordinates": [ [ [ 72.464, 23.02 ], [ 72.466, 23.02 ], [ 72.466, 23.022 ], [ 72.464, 23.022 ], [ 72.464, 23.02 ] ] ] } },
{ "type": "Feature", "properties": { "plot_id": "AD-AH-TP-00009", "land_use": "Residential", "fill_color": "#fee08b", "owner_name": "Owner 9", "area_sq_meters": 44355 }, "geometry": { "type": "Polygon", "coordinates": [ [ [ 72.466, 23.02 ], [ 72.468, 23.02 ], [ 72.468, 23.022 ], [ 72.466, 23.022 ], [ 72.466, 23.02 ] ] ] } },
{ "type": "Feature", "properties": { "plot_id": "AD-AH-TP-00010", "land_use": "Commercial", "fill_color": "#d73027", "owner_name": "Owner 10", "area_sq_meters": 44355 }, "geometry": { "type": "Polygon", "coordinates": [ [ [ 72.468, 23.02 ], [ 72.47, 23.02 ], [ 72.47, 23.022 ], [ 72.468, 23.022 ], [ 72.468, 23.02 ] ] ] } },
{ "type": "Feature", "properties": { "plot_id": "AD-AH-TP-00011", "land_use": "Agricultural", "fill_color": "#66bd63", "owner_name": "Owner 11", "area_sq_meters": 44355 }, "geometry": { "type": "Polygon", "coordinates": [ [ [ 72.47, 23.02 ], [ 72.472, 23.02 ], [ 72.472, 23.022 ], [ 72.47, 23.022 ], [ 72.47, 23.02 ] ] ] } },
{ "type": "Feature", "properties": { "plot_id": "AD-AH-TP-00012", "land_use": "Commercial", "fill_color": "#d73027", "owner_name": "Owner 12", "area_sq_meters": 44355 }, "geometry": { "type": "Polygon", "coordinates": [ [ [ 72.472, 23.02 ], [ 72.474, 23.02 ], [ 72.474, 23.022 ], [ 72.472, 23.022 ], [ 72.472, 23.02 ] ] ] } },
{ "type": "Feature", "properties": { "plot_id": "AD-AH-TP-00013", "land_use": "Residential", "fill_color": "#fee08b", "owner_name": "Owner 13", "area_sq_meters": 44355 }, "geometry": { "type": "Polygon", "coordinates": [ [ [ 72.474, 23.02 ], [ 72.476, 23.02 ], [ 72.476, 23.022 ], [ 72.474, 23.022 ], [ 72.474, 23.02 ] ] ] } },
{ "type": "Feature", "properties": { "plot_id": "AD-AH-TP-00014", "land_use": "Commercial", "fill_color": "#d73027", "owner_name": "Owner 14", "area_sq_meters": 44355 }, "geometry": { "type": "Polygon", "coordinates": [ [ [ 72.476, 23.02 ], [ 72.478, 23.02 ], [ 72.478, 23.022 ], [ 72.476, 23.022 ], [ 72.476, 23.02 ] ] ] } },
{ "type": "Feature", "properties": { "plot_id": "AD-AH-TP-00015", "land_use": "Institutional", "fill_color": "#4575b4", "owner_name": "Owner 15", "area_sq_meters": 44355 }, "geometry": { "type": "Polygon", "coordinates": [ [ [ 72.478, 23.02 ], [ 72.48, 23.02 ], [ 72.48, 23.022 ], [ 72.478, 23.022 ], [ 72.478, 23.02 ] ] ] } },
{ "type": "Feature", "properties": { "plot_id": "AD-AH-TP-00016", "land_use": "Commercial", "fill_color": "#d73027", "owner_name": "Owner 16", "area_sq_meters": 44355 }, "geometry": { "type": "Polygon", "coordinates": [ [ [ 72.48, 23.02 ], [ 72.482, 23.02 ], [ 72.482, 23.022 ], [ 72.48, 23.022 ], [ 72.48, 23.02 ] ] ] } },
{ "type": "Feature", "properties": { "plot_id": "AD-AH-TP-00017", "land_use": "Agricultural", "fill_color": "#66bd63", "owner_name": "Owner 17", "area_sq_meters": 44355 }, "geometry": { "type": "Polygon", "coordinates": [ [ [ 72.482, 23.02 ], [ 72.484, 23.02 ], [ 72.484, 23.022 ], [ 72.482, 23.022 ], [ 72.482, 23.02 ] ] ] } },
{ "type": "Feature", "properties": { "plot_id": "AD-AH-TP-00018", "land_use": "Institutional", "fill_color": "#4575b4", "owner_name": "Owner 18", "area_sq_meters": 44355 }, "geometry": { "type": "Polygon", "coordinates": [ [ [ 72.484, 23.02 ], [ 72.486, 23.02 ], [ 72.486, 23.022 ], [ 72.484, 23.022 ], [ 72.484, 23.02 ] ] ] } },
{ "type": "Feature", "properties": { "plot_id": "AD-AH-TP-00019", "land_use": "Agricultural", "fill_color": "#66bd63", "owner_name": "Owner 19", "area_sq_meters": 44355 }, "geometry": { "type": "Polygon", "coordinates": [ [ [ 72.486, 23.02 ], [ 72.488, 23.02 ], [ 72.488, 23.022 ], [ 72.486, 23.022 ], [ 72.486, 23.02 ] ] ] } },
{ "type": "Feature", "properties": { "plot_id": "AD-AH-TP-00020", "land_use": "Commercial", "fill_color": "#d73027", "owner_name": "Owner 20", "area_sq_meters": 44355 }, "geometry": { "type": "Polygon", "coordinates": [ [ [ 72.488, 23.02 ], [ 72.49, 23.02 ], [ 72.49, 23.022 ], [ 72.488, 23.022 ], [ 72.488, 23.02 ] ] ] } },
{ "type": "Feature", "properties": { "plot_id": "AD-AH-TP-00021", "land_use": "Commercial", "fill_color": "#d73027", "owner_name": "Owner 21", "area_sq_meters": 44355 }, "geometry": { "type": "Polygon", "coordinates": [ [ [ 72.45, 23.022 ], [ 72.452, 23.022 ], [ 72.452, 23.024 ], [ 72.45, 23.024 ], [ 72.45, 23.022 ] ] ] } },
{ "type": "Feature", "properties": { "plot_id": "AD-AH-TP-00022", "land_use": "Agricultural", "fill_color": "#66bd63", "owner_name": "Owner 22", "area_sq_meters": 44355 }, "geometry": { "type": "Polygon", "coordinates": [ [ [ 72.452, 23.022 ], [ 72.454, 23.022 ], [ 72.454, 23.024 ], [ 72.452, 23.024 ], [ 72.452, 23.022 ] ] ] } },
{ "type": "Feature", "properties": { "plot_id": "AD-AH-TP-00023", "land_use": "Commercial", "fill_color": "#d73027", "owner_name": "Owner 23", "area_sq_meters": 44355 }, "geometry": { "type": "Polygon", "coordinates": [ [ [ 72.454, 23.022 ], [ 72.456, 23.022 ], [ 72.456, 23.024 ], [ 72.454, 23.024 ], [ 72.454, 23.022 ] ] ] } },
{ "type": "Feature", "properties": { "plot_id": "AD-AH-TP-00024", "land_use": "Agricultural", "fill_color": "#66bd63", "owner_name": "Owner 24", "area_sq_meters": 44355 }, "geometry": { "type": "Polygon", "coordinates": [ [ [ 72.456, 23.022 ], [ 72.458, 23.022 ], [ 72.458, 23.024 ], [ 72.456, 23.024 ], [ 72.456, 23.022 ] ] ] } },
{ "type": "Feature", "properties": { "plot_id": "AD-AH-TP-00025", "land_use": "Agricultural", "fill_color": "#66bd63", "owner_name": "Owner 25", "area_sq_meters": 44355 }, "geometry": { "type": "Polygon", "coordinates": [ [ [ 72.458, 23.022 ], [ 72.46, 23.022 ], [ 72.46, 23.024 ], [ 72.458, 23.024 ], [ 72.458, 23.022 ] ] ] } },
{ "type": "Feature", "properties": { "plot_id": "AD-AH-TP-00026", "land_use": "Agricultural", "fill_color": "#66bd63", "owner_name": "Owner 26", "area_sq_meters": 44355 }, "geometry": { "type": "Polygon", "coordinates": [ [ [ 72.46, 23.022 ], [ 72.462, 23.022 ], [ 72.462, 23.024 ], [ 72.46, 23.024 ], [ 72.46, 23.022 ] ] ] } },
{ "type": "Feature", "properties": { "plot_id": "AD-AH-TP-00027", "land_use": "Agricultural", "fill_color": "#66bd63", "owner_name": "Owner 27", "area_sq_meters": 44355 }, "geometry": { "type": "Polygon", "coordinates": [ [ [ 72.462, 23.022 ], [ 72.464, 23.022 ], [ 72.464, 23.024 ], [ 72.462, 23.024 ], [ 72.462, 23.022 ] ] ] } },
{ "type": "Feature", "properties": { "plot_id": "AD-AH-TP-00028", "land_use": "Agricultural", "fill_color": "#66bd63", "owner_name": "Owner 28", "area_sq_meters": 44355 }, "geometry": { "type": "Polygon", "coordinates": [ [ [ 72.464, 23.022 ], [ 72.466, 23.022 ], [ 72.466, 23.024 ], [ 72.464, 23.024 ], [ 72.464, 23.022 ] ] ] } },
{ "type": "Feature", "properties": { "plot_id": "AD-AH-TP-00029", "land_use": "Agricultural", "fill_color": "#66bd63", "owner_name": "Owner 29", "area_sq_meters": 44355 }, "geometry": { "type": "Polygon", "coordinates": [ [ [ 72.466, 23.022 ], [ 72.468, 23.022 ], [ 72.468, 23.024 ], [ 72.466, 23.024 ], [ 72.466, 23.022 ] ] ] } },
{ "type": "Feature", "properties": { "plot_id": "AD-AH-TP-00030", "land_use": "Residential", "fill_color": "#fee08b", "owner_name": "Owner 30", "area_sq_meters": 44355 }, "geometry": { "type": "Polygon", "coordinates": [ [ [ 72.468, 23.022 ], [ 72.47, 23.022 ], [ 72.47, 23.024 ], [ 72.468, 23.024 ], [ 72.468, 23.022 ] ] ] } },
{ "type": "Feature", "properties": { "plot_id": "AD-AH-TP-00031", "land_use": "Agricultural", "fill_color": "#66bd63", "owner_name": "Owner 31", "area_sq_meters": 44355 }, "geometry": { "type": "Polygon", "coordinates": [ [ [ 72.47, 23.022 ], [ 72.472, 23.022 ], [ 72.472, 23.024 ], [ 72.47, 23.024 ], [ 72.47, 23.022 ] ] ] } },
{ "type": "Feature", "properties": { "plot_id": "AD-AH-TP-00032", "land_use": "Residential", "fill_color": "#fee08b", "owner_name": "Owner 32", "area_sq_meters": 44355 }, "geometry": { "type": "Polygon", "coordinates": [ [ [ 72.472, 23.022 ], [ 72.474, 23.022 ], [ 72.474, 23.024 ], [ 72.472, 23.024 ], [ 72.472, 23.022 ] ] ] } },
{ "type": "Feature", "properties": { "plot_id": "AD-AH-TP-00033", "land_use": "Agricultural", "fill_color": "#66bd63", "owner_name": "Owner 33", "area_sq_meters": 44355 }, "geometry": { "type": "Polygon", "coordinates": [ [ [ 72.474, 23.022 ], [ 72.476, 23.022 ], [ 72.476, 23.024 ], [ 72.474, 23.024 ], [ 72.474, 23.022 ] ] ] } },
{ "type": "Feature", "properties": { "plot_id": "AD-AH-TP-00034", "land_use": "Agricultural", "fill_color": "#66bd63", "owner_name": "Owner 34", "area_sq_meters": 44355 }, "geometry": { "type": "Polygon", "coordinates": [ [ [ 72.476, 23.022 ], [ 72.478, 23.022 ], [ 72.478, 23.024 ], [ 72.476, 23.024 ], [ 72.476, 23.022 ] ] ] } },
{ "type": "Feature", "properties": { "plot_id": "AD-AH-TP-00035", "land_use": "Institutional", "fill_color": "#4575b4", "owner_name": "Owner 35", "area_sq_meters": 44355 }, "geometry": { "type": "Polygon", "coordinates": [ [ [ 72.478, 23.022 ], [ 72.48, 23.022 ], [ 72.48, 23.024 ], [ 72.478, 23.024 ], [ 72.478, 23.022 ] ] ] } },
{ "type": "Feature", "properties": { "plot_id": "AD-AH-TP-00036", "land_use": "Residential", "fill_color": "#fee08b", "owner_name": "Owner 36", "area_sq_meters": 44355 }, "geometry": { "type": "Polygon", "coordinates": [ [ [ 72.48, 23.022 ], [ 72.482, 23.022 ], [ 72.482, 23.024 ], [ 72.48, 23.024 ], [ 72.48, 23.022 ] ] ] } },
{ "type": "Feature", "properties": { "plot_id": "AD-AH-TP-00037", "land_use": "Residential", "fill_color": "#fee08b", "owner_name": "Owner 37", "area_sq_meters": 44355 }, "geometry": { "type": "Polygon", "coordinates": [ [ [ 72.482, 23.022 ], [ 72.484, 23.022 ], [ 72.484, 23.024 ], [ 72.482, 23.024 ], [ 72.482, 23.022 ] ] ] } },
{ "type": "Feature", "properties": { "plot_id": "AD-AH-TP-00038", "land_use": "Institutional", "fill_color": "#4575b4", "owner_name": "Owner 38", "area_sq_meters": 44355 }, "geometry": { "type": "Polygon", "coordinates": [ [ [ 72.484, 23.022 ], [ 72.486, 23.022 ], [ 72.486, 23.024 ], [ 72.484, 23.024 ], [ 72.484, 23.022 ] ] ] } },
{ "type": "Feature", "properties": { "plot_id": "AD-AH-TP-00039", "land_use": "Commercial", "fill_color": "#d73027", "owner_name": "Owner 39", "area_sq_meters": 44355 }, "geometry": { "type": "Polygon", "coordinates": [ [ [ 72.486, 23.022 ], [ 72.488, 23.022 ], [ 72.488, 23.024 ], [ 72.486, 23.024 ], [ 72.486, 23.022 ] ] ] } },
{ "type": "Feature", "properties": { "plot_id": "AD-AH-TP-00040", "land_use": "Agricultural", "fill_color": "#66bd63", "owner_name": "Owner 40", "area_sq_meters": 44355 }, "geometry": { "type": "Polygon", "coordinates": [ [ [ 72.488, 23.022 ], [ 72.49, 23.022 ], [ 72.49, 23.024 ], [ 72.488, 23.024 ], [ 72.488, 23.022 ] ] ] } },
{ "type": "Feature", "properties": { "plot_id": "AD-AH-TP-00041", "land_use": "Institutional", "fill_color": "#4575b4", "owner_name": "Owner 41", "area_sq_meters": 44355 }, "geometry": { "type": "Polygon", "coordinates": [ [ [ 72.45, 23.024 ], [ 72.452, 23.024 ], [ 72.452, 23.026 ], [ 72.45, 23.026 ], [ 72.45, 23.024 ] ] ] } },
{ "type": "Feature", "properties": { "plot_id": "AD-AH-TP-00042", "land_use": "Commercial", "fill_color": "#d73027", "owner_name": "Owner 42", "area_sq_meters": 44355 }, "geometry": { "type": "Polygon", "coordinates": [ [ [ 72.452, 23.024 ], [ 72.454, 23.024 ], [ 72.454, 23.026 ], [ 72.452, 23.026 ], [ 72.452, 23.024 ] ] ] } },
{ "type": "Feature", "properties": { "plot_id": "AD-AH-TP-00043", "land_use": "Agricultural", "fill_color": "#66bd63", "owner_name": "Owner 43", "area_sq_meters": 44355 }, "geometry": { "type": "Polygon", "coordinates": [ [ [ 72.454, 23.024 ], [ 72.456, 23.024 ], [ 72.456, 23.026 ], [ 72.454, 23.026 ], [ 72.454, 23.024 ] ] ] } },
{ "type": "Feature", "properties": { "plot_id": "AD-AH-TP-00044", "land_use": "Commercial", "fill_color": "#d73027", "owner_name": "Owner 44", "area_sq_meters": 44355 }, "geometry": { "type": "Polygon", "coordinates": [ [ [ 72.456, 23.024 ], [ 72.458, 23.024 ], [ 72.458, 23.026 ], [ 72.456, 23.026 ], [ 72.456, 23.024 ] ] ] } },
{ "type": "Feature", "properties": { "plot_id": "AD-AH-TP-00045", "land_use": "Residential", "fill_color": "#fee08b", "owner_name": "Owner 45", "area_sq_meters": 44355 }, "geometry": { "type": "Polygon", "coordinates": [ [ [ 72.458, 23.024 ], [ 72.46, 23.024 ], [ 72.46, 23.026 ], [ 72.458, 23.026 ], [ 72.458, 23.024 ] ] ] } },
{ "type": "Feature", "properties": { "plot_id": "AD-AH-TP-00046", "land_use": "Agricultural", "fill_color": "#66bd63", "owner_name": "Owner 46", "area_sq_meters": 44355 }, "geometry": { "type": "Polygon", "coordinates": [ [ [ 72.46, 23.024 ], [ 72.462, 23.024 ], [ 72.462, 23.026 ], [ 72.46, 23.026 ], [ 72.46, 23.024 ] ] ] } },
{ "type": "Feature", "properties": { "plot_id": "AD-AH-TP-00047", "land_use": "Residential", "fill_color": "#fee08b", "owner_name": "Owner 47", "area_sq_meters": 44355 }, "geometry": { "type": "Polygon", "coordinates": [ [ [ 72.462, 23.024 ], [ 72.464, 23.024 ], [ 72.464, 23.026 ], [ 72.462, 23.026 ], [ 72.462, 23.024 ] ] ] } },
{ "type": "Feature", "properties": { "plot_id": "AD-AH-TP-00048", "land_use": "Residential", "fill_color": "#fee08b", "owner_name": "Owner 48", "area_sq_meters": 44355 }, "geometry": { "type": "Polygon", "coordinates": [ [ [ 72.464, 23.024 ], [ 72.466, 23.024 ], [ 72.466, 23.026 ], [ 72.464, 23.026 ], [ 72.464, 23.024 ] ] ] } },
{ "type": "Feature", "properties": { "plot_id": "AD-AH-TP-00049", "land_use": "Institutional", "fill_color": "#4575b4", "owner_name": "Owner 49", "area_sq_meters": 44355 }, "geometry": { "type": "Polygon", "coordinates": [ [ [ 72.466, 23.024 ], [ 72.468, 23.024 ], [ 72.468, 23.026 ], [ 72.466, 23.026 ], [ 72.466, 23.024 ] ] ] } },
{ "type": "Feature", "properties": { "plot_id": "AD-AH-TP-00050", "land_use": "Commercial", "fill_color": "#d73027", "owner_name": "Owner 50", "area_sq_meters": 44355 }, "geometry": { "type": "Polygon", "coordinates": [ [ [ 72.468, 23.024 ], [ 72.47, 23.024 ], [ 72.47, 23.026 ], [ 72.468, 23.026 ], [ 72.468, 23.024 ] ] ] } },
{ "type": "Feature", "properties": { "plot_id": "AD-AH-TP-00051", "land_use": "Institutional", "fill_color": "#4575b4", "owner_name": "Owner 51", "area_sq_meters": 44355 }, "geometry": { "type": "Polygon", "coordinates": [ [ [ 72.47, 23.024 ], [ 72.472, 23.024 ], [ 72.472, 23.026 ], [ 72.47, 23.026 ], [ 72.47, 23.024 ] ] ] } },
{ "type": "Feature", "properties": { "plot_id": "AD-AH-TP-00052", "land_use": "Commercial", "fill_color": "#d73027", "owner_name": "Owner 52", "area_sq_meters": 44355 }, "geometry": { "type": "Polygon", "coordinates": [ [ [ 72.472, 23.024 ], [ 72.474, 23.024 ], [ 72.474, 23.026 ], [ 72.472, 23.026 ], [ 72.472, 23.024 ] ] ] } },
{ "type": "Feature", "properties": { "plot_id": "AD-AH-TP-00053", "land_use": "Institutional", "fill_color": "#4575b4", "owner_name": "Owner 53", "area_sq_meters": 44355 }, "geometry": { "type": "Polygon", "coordinates": [ [ [ 72.474, 23.024 ], [ 72.476, 23.024 ], [ 72.476, 23.026 ], [ 72.474, 23.026 ], [ 72.474, 23.024 ] ] ] } },
{ "type": "Feature", "properties": { "plot_id": "AD-AH-TP-00054", "land_use": "Residential", "fill_color": "#fee08b", "owner_name": "Owner 54", "area_sq_meters": 44355 }, "geometry": { "type": "Polygon", "coordinates": [ [ [ 72.476, 23.024 ], [ 72.478, 23.024 ], [ 72.478, 23.026 ], [ 72.476, 23.026 ], [ 72.476, 23.024 ] ] ] } },
{ "type": "Feature", "properties": { "plot_id": "AD-AH-TP-00055", "land_use": "Institutional", "fill_color": "#4575b4", "owner_name": "Owner 55", "area_sq_meters": 44355 }, "geometry": { "type": "Polygon", "coordinates": [ [ [ 72.478, 23.024 ], [ 72.48, 23.024 ], [ 72.48, 23.026 ], [ 72.478, 23.026 ], [ 72.478, 23.024 ] ] ] } },
{ "type": "Feature", "properties": { "plot_id": "AD-AH-TP-00056", "land_use": "Institutional", "fill_color": "#4575b4", "owner_name": "Owner 56", "area_sq_meters": 44355 }, "geometry": { "type": "Polygon", "coordinates": [ [ [ 72.48, 23.024 ], [ 72.482, 23.024 ], [ 72.482, 23.026 ], [ 72.48, 23.026 ], [ 72.48, 23.024 ] ] ] } },
{ "type": "Feature", "properties": { "plot_id": "AD-AH-TP-00057", "land_use": "Commercial", "fill_color": "#d73027", "owner_name": "Owner 57", "area_sq_meters": 44355 }, "geometry": { "type": "Polygon", "coordinates": [ [ [ 72.482, 23.024 ], [ 72.484, 23.024 ], [ 72.484, 23.026 ], [ 72.482, 23.026 ], [ 72.482, 23.024 ] ] ] } },
{ "type": "Feature", "properties": { "plot_id": "AD-AH-TP-00058", "land_use": "Commercial", "fill_color": "#d73027", "owner_name": "Owner 58", "area_sq_meters": 44355 }, "geometry": { "type": "Polygon", "coordinates": [ [ [ 72.484, 23.024 ], [ 72.486, 23.024 ], [ 72.486, 23.026 ], [ 72.484, 23.026 ], [ 72.484, 23.024 ] ] ] } },
{ "type": "Feature", "properties": { "plot_id": "AD-AH-TP-00059", "land_use": "Agricultural", "fill_color": "#66bd63", "owner_name": "Owner 59", "area_sq_meters": 44355 }, "geometry": { "type": "Polygon", "coordinates": [ [ [ 72.486, 23.024 ], [ 72.488, 23.024 ], [ 72.488, 23.026 ], [ 72.486, 23.026 ], [ 72.486, 23.024 ] ] ] } },
{ "type": "Feature", "properties": { "plot_id": "AD-AH-TP-00060", "land_use": "Agricultural", "fill_color": "#66bd63", "owner_name": "Owner 60", "area_sq_meters": 44355 }, "geometry": { "type": "Polygon", "coordinates": [ [ [ 72.488, 23.024 ], [ 72.49, 23.024 ], [ 72.49, 23.026 ], [ 72.488, 23.026 ], [ 72.488, 23.024 ] ] ] } },
{ "type": "Feature", "properties": { "plot_id": "AD-AH-TP-00061", "land_use": "Commercial", "fill_color": "#d73027", "owner_name": "Owner 61", "area_sq_meters": 44355 }, "geometry": { "type": "Polygon", "coordinates": [ [ [ 72.45, 23.026 ], [ 72.452, 23.026 ], [ 72.452, 23.028 ], [ 72.45, 23.028 ], [ 72.45, 23.026 ] ] ] } },
{ "type": "Feature", "properties": { "plot_id": "AD-AH-TP-00062", "land_use": "Agricultural", "fill_color": "#66bd63", "owner_name": "Owner 62", "area_sq_meters": 44355 }, "geometry": { "type": "Polygon", "coordinates": [ [ [ 72.452, 23.026 ], [ 72.454, 23.026 ], [ 72.454, 23.028 ], [ 72.452, 23.028 ], [ 72.452, 23.026 ] ] ] } },
{ "type": "Feature", "properties": { "plot_id": "AD-AH-TP-00063", "land_use": "Residential", "fill_color": "#fee08b", "owner_name": "Owner 63", "area_sq_meters": 44355 }, "geometry": { "type": "Polygon", "coordinates": [ [ [ 72.454, 23.026 ], [ 72.456, 23.026 ], [ 72.456, 23.028 ], [ 72.454, 23.028 ], [ 72.454, 23.026 ] ] ] } },
{ "type": "Feature", "properties": { "plot_id": "AD-AH-TP-00064", "land_use": "Commercial", "fill_color": "#d73027", "owner_name": "Owner 64", "area_sq_meters": 44355 }, "geometry": { "type": "Polygon", "coordinates": [ [ [ 72.456, 23.026 ], [ 72.458, 23.026 ], [ 72.458, 23.028 ], [ 72.456, 23.028 ], [ 72.456, 23.026 ] ] ] } },
{ "type": "Feature", "properties": { "plot_id": "AD-AH-TP-00065", "land_use": "Commercial", "fill_color": "#d73027", "owner_name": "Owner 65", "area_sq_meters": 44355 }, "geometry": { "type": "Polygon", "coordinates": [ [ [ 72.458, 23.026 ], [ 72.46, 23.026 ], [ 72.46, 23.028 ], [ 72.458, 23.028 ], [ 72.458, 23.026 ] ] ] } },
{ "type": "Feature", "properties": { "plot_id": "AD-AH-TP-00066", "land_use": "Institutional", "fill_color": "#4575b4", "owner_name": "Owner 66", "area_sq_meters": 44355 }, "geometry": { "type": "Polygon", "coordinates": [ [ [ 72.46, 23.026 ], [ 72.462, 23.026 ], [ 72.462, 23.028 ], [ 72.46, 23.028 ], [ 72.46, 23.026 ] ] ] } },
{ "type": "Feature", "properties": { "plot_id": "AD-AH-TP-00067", "land_use": "Commercial", "fill_color": "#d73027", "owner_name": "Owner 67", "area_sq_meters": 44355 }, "geometry": { "type": "Polygon", "coordinates": [ [ [ 72.462, 23.026 ], [ 72.464, 23.026 ], [ 72.464, 23.028 ], [ 72.462, 23.028 ], [ 72.462, 23.026 ] ] ] } },
{ "type": "Feature", "properties": { "plot_id": "AD-AH-TP-00068", "land_use": "Institutional", "fill_color": "#4575b4", "owner_name": "Owner 68", "area_sq_meters": 44355 }, "geometry": { "type": "Polygon", "coordinates": [ [ [ 72.464, 23.026 ], [ 72.466, 23.026 ], [ 72.466, 23.028 ], [ 72.464, 23.028 ], [ 72.464, 23.026 ] ] ] } },
{ "type": "Feature", "properties": { "plot_id": "AD-AH-TP-00069", "land_use": "Agricultural", "fill_color": "#66bd63", "owner_name": "Owner 69", "area_sq_meters": 44355 }, "geometry": { "type": "Polygon", "coordinates": [ [ [ 72.466, 23.026 ], [ 72.468, 23.026 ], [ 72.468, 23.028 ], [ 72.466, 23.028 ], [ 72.466, 23.026 ] ] ] } },
{ "type": "Feature", "properties": { "plot_id": "AD-AH-TP-00070", "land_use": "Commercial", "fill_color": "#d73027", "owner_name": "Owner 70", "area_sq_meters": 44355 }, "geometry": { "type": "Polygon", "coordinates": [ [ [ 72.468, 23.026 ], [ 72.47, 23.026 ], [ 72.47, 23.028 ], [ 72.468, 23.028 ], [ 72.468, 23.026 ] ] ] } },
{ "type": "Feature", "properties": { "plot_id": "AD-AH-TP-00071", "land_use": "Commercial", "fill_color": "#d73027", "owner_name": "Owner 71", "area_sq_meters": 44355 }, "geometry": { "type": "Polygon", "coordinates": [ [ [ 72.47, 23.026 ], [ 72.472, 23.026 ], [ 72.472, 23.028 ], [ 72.47, 23.028 ], [ 72.47, 23.026 ] ] ] } },
{ "type": "Feature", "properties": { "plot_id": "AD-AH-TP-00072", "land_use": "Commercial", "fill_color": "#d73027", "owner_name": "Owner 72", "area_sq_meters": 44355 }, "geometry": { "type": "Polygon", "coordinates": [ [ [ 72.472, 23.026 ], [ 72.474, 23.026 ], [ 72.474, 23.028 ], [ 72.472, 23.028 ], [ 72.472, 23.026 ] ] ] } },
{ "type": "Feature", "properties": { "plot_id": "AD-AH-TP-00073", "land_use": "Commercial", "fill_color": "#d73027", "owner_name": "Owner 73", "area_sq_meters": 44355 }, "geometry": { "type": "Polygon", "coordinates": [ [ [ 72.474, 23.026 ], [ 72.476, 23.026 ], [ 72.476, 23.028 ], [ 72.474, 23.028 ], [ 72.474, 23.026 ] ] ] } },
{ "type": "Feature", "properties": { "plot_id": "AD-AH-TP-00074", "land_use": "Agricultural", "fill_color": "#66bd63", "owner_name": "Owner 74", "area_sq_meters": 44355 }, "geometry": { "type": "Polygon", "coordinates": [ [ [ 72.476, 23.026 ], [ 72.478, 23.026 ], [ 72.478, 23.028 ], [ 72.476, 23.028 ], [ 72.476, 23.026 ] ] ] } },
{ "type": "Feature", "properties": { "plot_id": "AD-AH-TP-00075", "land_use": "Residential", "fill_color": "#fee08b", "owner_name": "Owner 75", "area_sq_meters": 44355 }, "geometry": { "type": "Polygon", "coordinates": [ [ [ 72.478, 23.026 ], [ 72.48, 23.026 ], [ 72.48, 23.028 ], [ 72.478, 23.028 ], [ 72.478, 23.026 ] ] ] } },
{ "type": "Feature", "properties": { "plot_id": "AD-AH-TP-00076", "land_use": "Agricultural", "fill_color": "#66bd63", "owner_name": "Owner 76", "area_sq_meters": 44355 }, "geometry": { "type": "Polygon", "coordinates": [ [ [ 72.48, 23.026 ], [ 72.482, 23.026 ], [ 72.482, 23.028 ], [ 72.48, 23.028 ], [ 72.48, 23.026 ] ] ] } },
{ "type": "Feature", "properties": { "plot_id": "AD-AH-TP-00077", "land_use": "Agricultural", "fill_color": "#66bd63", "owner_name": "Owner 77", "area_sq_meters": 44355 }, "geometry": { "type": "Polygon", "coordinates": [ [ [ 72.482, 23.026 ], [ 72.484, 23.026 ], [ 72.484, 23.028 ], [ 72.482, 23.028 ], [ 72.482, 23.026 ] ] ] } },
{ "type": "Feature", "properties": { "plot_id": "AD-AH-TP-00078", "land_use": "Agricultural", "fill_color": "#66bd63", "owner_name": "Owner 78", "area_sq_meters": 44355 }, "geometry": { "type": "Polygon", "coordinates": [ [ [ 72.484, 23.026 ], [ 72.486, 23.026 ], [ 72.486, 23.028 ], [ 72.484, 23.028 ], [ 72.484, 23.026 ] ] ] } },
{ "type": "Feature", "properties": { "plot_id": "AD-AH-TP-00079", "land_use": "Institutional", "fill_color": "#4575b4", "owner_name": "Owner 79", "area_sq_meters": 44355 }, "geometry": { "type": "Polygon", "coordinates": [ [ [ 72.486, 23.026 ], [ 72.488, 23.026 ], [ 72.488, 23.028 ], [ 72.486, 23.028 ], [ 72.486, 23.026 ] ] ] } },
{ "type": "Feature", "properties": { "plot_id": "AD-AH-TP-00080", "land_use": "Institutional", "fill_color": "#4575b4", "owner_name": "Owner 80", "area_sq_meters": 44355 }, "geometry": { "type": "Polygon", "coordinates": [ [ [ 72.488, 23.026 ], [ 72.49, 23.026 ], [ 72.49, 23.028 ], [ 72.488, 23.028 ], [ 72.488, 23.026 ] ] ] } },
{ "type": "Feature", "properties": { "plot_id": "AD-AH-TP-00081", "land_use": "Commercial", "fill_color": "#d73027", "owner_name": "Owner 81", "area_sq_meters": 44355 }, "geometry": { "type": "Polygon", "coordinates": [ [ [ 72.45, 23.028 ], [ 72.452, 23.028 ], [ 72.452, 23.03 ], [ 72.45, 23.03 ], [ 72.45, 23.028 ] ] ] } },
{ "type": "Feature", "properties": { "plot_id": "AD-AH-TP-00082", "land_use": "Institutional", "fill_color": "#4575b4", "owner_name": "Owner 82", "area_sq_meters": 44355 }, "geometry": { "type": "Polygon", "coordinates": [ [ [ 72.452, 23.028 ], [ 72.454, 23.028 ], [ 72.454, 23.03 ], [ 72.452, 23.03 ], [ 72.452, 23.028 ] ] ] } },
{ "type": "Feature", "properties": { "plot_id": "AD-AH-TP-00083", "land_use": "Agricultural", "fill_color": "#66bd63", "owner_name": "Owner 83", "area_sq_meters": 44355 }, "geometry": { "type": "Polygon", "coordinates": [ [ [ 72.454, 23.028 ], [ 72.456, 23.028 ], [ 72.456, 23.03 ], [ 72.454, 23.03 ], [ 72.454, 23.028 ] ] ] } },
{ "type": "Feature", "properties": { "plot_id": "AD-AH-TP-00084", "land_use": "Residential", "fill_color": "#fee08b", "owner_name": "Owner 84", "area_sq_meters": 44355 }, "geometry": { "type": "Polygon", "coordinates": [ [ [ 72.456, 23.028 ], [ 72.458, 23.028 ], [ 72.458, 23.03 ], [ 72.456, 23.03 ], [ 72.456, 23.028 ] ] ] } },
{ "type": "Feature", "properties": { "plot_id": "AD-AH-TP-00085", "land_use": "Institutional", "fill_color": "#4575b4", "owner_name": "Owner 85", "area_sq_meters": 44355 }, "geometry": { "type": "Polygon", "coordinates": [ [ [ 72.458, 23.028 ], [ 72.46, 23.028 ], [ 72.46, 23.03 ], [ 72.458, 23.03 ], [ 72.458, 23.028 ] ] ] } },
{ "type": "Feature", "properties": { "plot_id": "AD-AH-TP-00086", "land_use": "Institutional", "fill_color": "#4575b4", "owner_name": "Owner 86", "area_sq_meters": 44355 }, "geometry": { "type": "Polygon", "coordinates": [ [ [ 72.46, 23.028 ], [ 72.462, 23.028 ], [ 72.462, 23.03 ], [ 72.46, 23.03 ], [ 72.46, 23.028 ] ] ] } },
{ "type": "Feature", "properties": { "plot_id": "AD-AH-TP-00087", "land_use": "Institutional", "fill_color": "#4575b4", "owner_name": "Owner 87", "area_sq_meters": 44355 }, "geometry": { "type": "Polygon", "coordinates": [ [ [ 72.462, 23.028 ], [ 72.464, 23.028 ], [ 72.464, 23.03 ], [ 72.462, 23.03 ], [ 72.462, 23.028 ] ] ] } },
{ "type": "Feature", "properties": { "plot_id": "AD-AH-TP-00088", "land_use": "Residential", "fill_color": "#fee08b", "owner_name": "Owner 88", "area_sq_meters": 44355 }, "geometry": { "type": "Polygon", "coordinates": [ [ [ 72.464, 23.028 ], [ 72.466, 23.028 ], [ 72.466, 23.03 ], [ 72.464, 23.03 ], [ 72.464, 23.028 ] ] ] } },
{ "type": "Feature", "properties": { "plot_id": "AD-AH-TP-00089", "land_use": "Institutional", "fill_color": "#4575b4", "owner_name": "Owner 89", "area_sq_meters": 44355 }, "geometry": { "type": "Polygon", "coordinates": [ [ [ 72.466, 23.028 ], [ 72.468, 23.028 ], [ 72.468, 23.03 ], [ 72.466, 23.03 ], [ 72.466, 23.028 ] ] ] } },
{ "type": "Feature", "properties": { "plot_id": "AD-AH-TP-00090", "land_use": "Agricultural", "fill_color": "#66bd63", "owner_name": "Owner 90", "area_sq_meters": 44355 }, "geometry": { "type": "Polygon", "coordinates": [ [ [ 72.468, 23.028 ], [ 72.47, 23.028 ], [ 72.47, 23.03 ], [ 72.468, 23.03 ], [ 72.468, 23.028 ] ] ] } },
{ "type": "Feature", "properties": { "plot_id": "AD-AH-TP-00091", "land_use": "Commercial", "fill_color": "#d73027", "owner_name": "Owner 91", "area_sq_meters": 44355 }, "geometry": { "type": "Polygon", "coordinates": [ [ [ 72.47, 23.028 ], [ 72.472, 23.028 ], [ 72.472, 23.03 ], [ 72.47, 23.03 ], [ 72.47, 23.028 ] ] ] } },
{ "type": "Feature", "properties": { "plot_id": "AD-AH-TP-00092", "land_use": "Institutional", "fill_color": "#4575b4", "owner_name": "Owner 92", "area_sq_meters": 44355 }, "geometry": { "type": "Polygon", "coordinates": [ [ [ 72.472, 23.028 ], [ 72.474, 23.028 ], [ 72.474, 23.03 ], [ 72.472, 23.03 ], [ 72.472, 23.028 ] ] ] } },
{ "type": "Feature", "properties": { "plot_id": "AD-AH-TP-00093", "land_use": "Commercial", "fill_color": "#d73027", "owner_name": "Owner 93", "area_sq_meters": 44355 }, "geometry": { "type": "Polygon", "coordinates": [ [ [ 72.474, 23.028 ], [ 72.476, 23.028 ], [ 72.476, 23.03 ], [ 72.474, 23.03 ], [ 72.474, 23.028 ] ] ] } },
{ "type": "Feature", "properties": { "plot_id": "AD-AH-TP-00094", "land_use": "Commercial", "fill_color": "#d73027", "owner_name": "Owner 94", "area_sq_meters": 44355 }, "geometry": { "type": "Polygon", "coordinates": [ [ [ 72.476, 23.028 ], [ 72.478, 23.028 ], [ 72.478, 23.03 ], [ 72.476, 23.03 ], [ 72.476, 23.028 ] ] ] } },
{ "type": "Feature", "properties": { "plot_id": "AD-AH-TP-00095", "land_use": "Residential", "fill_color": "#fee08b", "owner_name": "Owner 95", "area_sq_meters": 44355 }, "geometry": { "type": "Polygon", "coordinates": [ [ [ 72.478, 23.028 ], [ 72.48, 23.028 ], [ 72.48, 23.03 ], [ 72.478, 23.03 ], [ 72.478, 23.028 ] ] ] } },
{ "type": "Feature", "properties": { "plot_id": "AD-AH-TP-00096", "land_use": "Agricultural", "fill_color": "#66bd63", "owner_name": "Owner 96", "area_sq_meters": 44355 }, "geometry": { "type": "Polygon", "coordinates": [ [ [ 72.48, 23.028 ], [ 72.482, 23.028 ], [ 72.482, 23.03 ], [ 72.48, 23.03 ], [ 72.48, 23.028 ] ] ] } },
{ "type": "Feature", "properties": { "plot_id": "AD-AH-TP-00097", "land_use": "Residential", "fill_color": "#fee08b", "owner_name": "Owner 97", "area_sq_meters": 44355 }, "geometry": { "type": "Polygon", "coordinates": [ [ [ 72.482, 23.028 ], [ 72.484, 23.028 ], [ 72.484, 23.03 ], [ 72.482, 23.03 ], [ 72.482, 23.028 ] ] ] } },
{ "type": "Feature", "properties": { "plot_id": "AD-AH-TP-00098", "land_use": "Residential", "fill_color": "#fee08b", "owner_name": "Owner 98", "area_sq_meters": 44355 }, "geometry": { "type": "Polygon", "coordinates": [ [ [ 72.484, 23.028 ], [ 72.486, 23.028 ], [ 72.486, 23.03 ], [ 72.484, 23.03 ], [ 72.484, 23.028 ] ] ] } },
{ "type": "Feature", "properties": { "plot_id": "AD-AH-TP-00099", "land_use": "Institutional", "fill_color": "#4575b4", "owner_name": "Owner 99", "area_sq_meters": 44355 }, "geometry": { "type": "Polygon", "coordinates": [ [ [ 72.486, 23.028 ], [ 72.488, 23.028 ], [ 72.488, 23.03 ], [ 72.486, 23.03 ], [ 72.486, 23.028 ] ] ] } },
{ "type": "Feature", "properties": { "plot_id": "AD-AH-TP-00100", "land_use": "Residential", "fill_color": "#fee08b", "owner_name": "Owner 100", "area_sq_meters": 44355 }, "geometry": { "type": "Polygon", "coordinates": [ [ [ 72.488, 23.028 ], [ 72.49, 23.028 ], [ 72.49, 23.03 ], [ 72.488, 23.03 ], [ 72.488, 23.028 ] ] ] } },
{ "type": "Feature", "properties": { "plot_id": "AD-AH-TP-00101", "land_use": "Residential", "fill_color": "#fee08b", "owner_name": "Owner 101", "area_sq_meters": 44355 }, "geometry": { "type": "Polygon", "coordinates": [ [ [ 72.45, 23.03 ], [ 72.452, 23.03 ], [ 72.452, 23.032 ], [ 72.45, 23.032 ], [ 72.45, 23.03 ] ] ] } },
{ "type": "Feature", "properties": { "plot_id": "AD-AH-TP-00102", "land_use": "Residential", "fill_color": "#fee08b", "owner_name": "Owner 102", "area_sq_meters": 44355 }, "geometry": { "type": "Polygon", "coordinates": [ [ [ 72.452, 23.03 ], [ 72.454, 23.03 ], [ 72.454, 23.032 ], [ 72.452, 23.032 ], [ 72.452, 23.03 ] ] ] } },
{ "type": "Feature", "properties": { "plot_id": "AD-AH-TP-00103", "land_use": "Commercial", "fill_color": "#d73027", "owner_name": "Owner 103", "area_sq_meters": 44355 }, "geometry": { "type": "Polygon", "coordinates": [ [ [ 72.454, 23.03 ], [ 72.456, 23.03 ], [ 72.456, 23.032 ], [ 72.454, 23.032 ], [ 72.454, 23.03 ] ] ] } },
{ "type": "Feature", "properties": { "plot_id": "AD-AH-TP-00104", "land_use": "Institutional", "fill_color": "#4575b4", "owner_name": "Owner 104", "area_sq_meters": 44355 }, "geometry": { "type": "Polygon", "coordinates": [ [ [ 72.456, 23.03 ], [ 72.458, 23.03 ], [ 72.458, 23.032 ], [ 72.456, 23.032 ], [ 72.456, 23.03 ] ] ] } },
{ "type": "Feature", "properties": { "plot_id": "AD-AH-TP-00105", "land_use": "Residential", "fill_color": "#fee08b", "owner_name": "Owner 105", "area_sq_meters": 44355 }, "geometry": { "type": "Polygon", "coordinates": [ [ [ 72.458, 23.03 ], [ 72.46, 23.03 ], [ 72.46, 23.032 ], [ 72.458, 23.032 ], [ 72.458, 23.03 ] ] ] } },
{ "type": "Feature", "properties": { "plot_id": "AD-AH-TP-00106", "land_use": "Agricultural", "fill_color": "#66bd63", "owner_name": "Owner 106", "area_sq_meters": 44355 }, "geometry": { "type": "Polygon", "coordinates": [ [ [ 72.46, 23.03 ], [ 72.462, 23.03 ], [ 72.462, 23.032 ], [ 72.46, 23.032 ], [ 72.46, 23.03 ] ] ] } },
{ "type": "Feature", "properties": { "plot_id": "AD-AH-TP-00107", "land_use": "Commercial", "fill_color": "#d73027", "owner_name": "Owner 107", "area_sq_meters": 44355 }, "geometry": { "type": "Polygon", "coordinates": [ [ [ 72.462, 23.03 ], [ 72.464, 23.03 ], [ 72.464, 23.032 ], [ 72.462, 23.032 ], [ 72.462, 23.03 ] ] ] } },
{ "type": "Feature", "properties": { "plot_id": "AD-AH-TP-00108", "land_use": "Agricultural", "fill_color": "#66bd63", "owner_name": "Owner 108", "area_sq_meters": 44355 }, "geometry": { "type": "Polygon", "coordinates": [ [ [ 72.464, 23.03 ], [ 72.466, 23.03 ], [ 72.466, 23.032 ], [ 72.464, 23.032 ], [ 72.464, 23.03 ] ] ] } },
{ "type": "Feature", "properties": { "plot_id": "AD-AH-TP-00109", "land_use": "Institutional", "fill_color": "#4575b4", "owner_name": "Owner 109", "area_sq_meters": 44355 }, "geometry": { "type": "Polygon", "coordinates": [ [ [ 72.466, 23.03 ], [ 72.468, 23.03 ], [ 72.468, 23.032 ], [ 72.466, 23.032 ], [ 72.466, 23.03 ] ] ] } },
{ "type": "Feature", "properties": { "plot_id": "AD-AH-TP-00110", "land_use": "Residential", "fill_color": "#fee08b", "owner_name": "Owner 110", "area_sq_meters": 44355 }, "geometry": { "type": "Polygon", "coordinates": [ [ [ 72.468, 23.03 ], [ 72.47, 23.03 ], [ 72.47, 23.032 ], [ 72.468, 23.032 ], [ 72.468, 23.03 ] ] ] } },
{ "type": "Feature", "properties": { "plot_id": "AD-AH-TP-00111", "land_use": "Residential", "fill_color": "#fee08b", "owner_name": "Owner 111", "area_sq_meters": 44355 }, "geometry": { "type": "Polygon", "coordinates": [ [ [ 72.47, 23.03 ], [ 72.472, 23.03 ], [ 72.472, 23.032 ], [ 72.47, 23.032 ], [ 72.47, 23.03 ] ] ] } },
{ "type": "Feature", "properties": { "plot_id": "AD-AH-TP-00112", "land_use": "Institutional", "fill_color": "#4575b4", "owner_name": "Owner 112", "area_sq_meters": 44355 }, "geometry": { "type": "Polygon", "coordinates": [ [ [ 72.472, 23.03 ], [ 72.474, 23.03 ], [ 72.474, 23.032 ], [ 72.472, 23.032 ], [ 72.472, 23.03 ] ] ] } },
{ "type": "Feature", "properties": { "plot_id": "AD-AH-TP-00113", "land_use": "Residential", "fill_color": "#fee08b", "owner_name": "Owner 113", "area_sq_meters": 44355 }, "geometry": { "type": "Polygon", "coordinates": [ [ [ 72.474, 23.03 ], [ 72.476, 23.03 ], [ 72.476, 23.032 ], [ 72.474, 23.032 ], [ 72.474, 23.03 ] ] ] } },
{ "type": "Feature", "properties": { "plot_id": "AD-AH-TP-00114", "land_use": "Agricultural", "fill_color": "#66bd63", "owner_name": "Owner 114", "area_sq_meters": 44355 }, "geometry": { "type": "Polygon", "coordinates": [ [ [ 72.476, 23.03 ], [ 72.478, 23.03 ], [ 72.478, 23.032 ], [ 72.476, 23.032 ], [ 72.476, 23.03 ] ] ] } },
{ "type": "Feature", "properties": { "plot_id": "AD-AH-TP-00115", "land_use": "Agricultural", "fill_color": "#66bd63", "owner_name": "Owner 115", "area_sq_meters": 44355 }, "geometry": { "type": "Polygon", "coordinates": [ [ [ 72.478, 23.03 ], [ 72.48, 23.03 ], [ 72.48, 23.032 ], [ 72.478, 23.032 ], [ 72.478, 23.03 ] ] ] } },
{ "type": "Feature", "properties": { "plot_id": "AD-AH-TP-00116", "land_use": "Institutional", "fill_color": "#4575b4", "owner_name": "Owner 116", "area_sq_meters": 44355 }, "geometry": { "type": "Polygon", "coordinates": [ [ [ 72.48, 23.03 ], [ 72.482, 23.03 ], [ 72.482, 23.032 ], [ 72.48, 23.032 ], [ 72.48, 23.03 ] ] ] } },
{ "type": "Feature", "properties": { "plot_id": "AD-AH-TP-00117", "land_use": "Commercial", "fill_color": "#d73027", "owner_name": "Owner 117", "area_sq_meters": 44355 }, "geometry": { "type": "Polygon", "coordinates": [ [ [ 72.482, 23.03 ], [ 72.484, 23.03 ], [ 72.484, 23.032 ], [ 72.482, 23.032 ], [ 72.482, 23.03 ] ] ] } },
{ "type": "Feature", "properties": { "plot_id": "AD-AH-TP-00118", "land_use": "Institutional", "fill_color": "#4575b4", "owner_name": "Owner 118", "area_sq_meters": 44355 }, "geometry": { "type": "Polygon", "coordinates": [ [ [ 72.484, 23.03 ], [ 72.486, 23.03 ], [ 72.486, 23.032 ], [ 72.484, 23.032 ], [ 72.484, 23.03 ] ] ] } },
{ "type": "Feature", "properties": { "plot_id": "AD-AH-TP-00119", "land_use": "Commercial", "fill_color": "#d73027", "owner_name": "Owner 119", "area_sq_meters": 44355 }, "geometry": { "type": "Polygon", "coordinates": [ [ [ 72.486, 23.03 ], [ 72.488, 23.03 ], [ 72.488, 23.032 ], [ 72.486, 23.032 ], [ 72.486, 23.03 ] ] ] } },
{ "type": "Feature", "properties": { "plot_id": "AD-AH-TP-00120", "land_use": "Agricultural", "fill_color": "#66bd63", "owner_name": "Owner 120", "area_sq_meters": 44355 }, "geometry": { "type": "Polygon", "coordinates": [ [ [ 72.488, 23.03 ], [ 72.49, 23.03 ], [ 72.49, 23.032 ], [ 72.488, 23.032 ], [ 72.488, 23.03 ] ] ] } },
{ "type": "Feature", "properties": { "plot_id": "AD-AH-TP-00121", "land_use": "Commercial", "fill_color": "#d73027", "owner_name": "Owner 121", "area_sq_meters": 44355 }, "geometry": { "type": "Polygon", "coordinates": [ [ [ 72.45, 23.032 ], [ 72.452, 23.032 ], [ 72.452, 23.034 ], [ 72.45, 23.034 ], [ 72.45, 23.032 ] ] ] } },
{ "type": "Feature", "properties": { "plot_id": "AD-AH-TP-00122", "land_use": "Residential", "fill_color": "#fee08b", "owner_name": "Owner 122", "area_sq_meters": 44355 }, "geometry": { "type": "Polygon", "coordinates": [ [ [ 72.452, 23.032 ], [ 72.454, 23.032 ], [ 72.454, 23.034 ], [ 72.452, 23.034 ], [ 72.452, 23.032 ] ] ] } },
{ "type": "Feature", "properties": { "plot_id": "AD-AH-TP-00123", "land_use": "Commercial", "fill_color": "#d73027", "owner_name": "Owner 123", "area_sq_meters": 44355 }, "geometry": { "type": "Polygon", "coordinates": [ [ [ 72.454, 23.032 ], [ 72.456, 23.032 ], [ 72.456, 23.034 ], [ 72.454, 23.034 ], [ 72.454, 23.032 ] ] ] } },
{ "type": "Feature", "properties": { "plot_id": "AD-AH-TP-00124", "land_use": "Institutional", "fill_color": "#4575b4", "owner_name": "Owner 124", "area_sq_meters": 44355 }, "geometry": { "type": "Polygon", "coordinates": [ [ [ 72.456, 23.032 ], [ 72.458, 23.032 ], [ 72.458, 23.034 ], [ 72.456, 23.034 ], [ 72.456, 23.032 ] ] ] } },
{ "type": "Feature", "properties": { "plot_id": "AD-AH-TP-00125", "land_use": "Agricultural", "fill_color": "#66bd63", "owner_name": "Owner 125", "area_sq_meters": 44355 }, "geometry": { "type": "Polygon", "coordinates": [ [ [ 72.458, 23.032 ], [ 72.46, 23.032 ], [ 72.46, 23.034 ], [ 72.458, 23.034 ], [ 72.458, 23.032 ] ] ] } },
{ "type": "Feature", "properties": { "plot_id": "AD-AH-TP-00126", "land_use": "Commercial", "fill_color": "#d73027", "owner_name": "Owner 126", "area_sq_meters": 44355 }, "geometry": { "type": "Polygon", "coordinates": [ [ [ 72.46, 23.032 ], [ 72.462, 23.032 ], [ 72.462, 23.034 ], [ 72.46, 23.034 ], [ 72.46, 23.032 ] ] ] } },
{ "type": "Feature", "properties": { "plot_id": "AD-AH-TP-00127", "land_use": "Commercial", "fill_color": "#d73027", "owner_name": "Owner 127", "area_sq_meters": 44355 }, "geometry": { "type": "Polygon", "coordinates": [ [ [ 72.462, 23.032 ], [ 72.464, 23.032 ], [ 72.464, 23.034 ], [ 72.462, 23.034 ], [ 72.462, 23.032 ] ] ] } },
{ "type": "Feature", "properties": { "plot_id": "AD-AH-TP-00128", "land_use": "Commercial", "fill_color": "#d73027", "owner_name": "Owner 128", "area_sq_meters": 44355 }, "geometry": { "type": "Polygon", "coordinates": [ [ [ 72.464, 23.032 ], [ 72.466, 23.032 ], [ 72.466, 23.034 ], [ 72.464, 23.034 ], [ 72.464, 23.032 ] ] ] } },
{ "type": "Feature", "properties": { "plot_id": "AD-AH-TP-00129", "land_use": "Institutional", "fill_color": "#4575b4", "owner_name": "Owner 129", "area_sq_meters": 44355 }, "geometry": { "type": "Polygon", "coordinates": [ [ [ 72.466, 23.032 ], [ 72.468, 23.032 ], [ 72.468, 23.034 ], [ 72.466, 23.034 ], [ 72.466, 23.032 ] ] ] } },
{ "type": "Feature", "properties": { "plot_id": "AD-AH-TP-00130", "land_use": "Residential", "fill_color": "#fee08b", "owner_name": "Owner 130", "area_sq_meters": 44355 }, "geometry": { "type": "Polygon", "coordinates": [ [ [ 72.468, 23.032 ], [ 72.47, 23.032 ], [ 72.47, 23.034 ], [ 72.468, 23.034 ], [ 72.468, 23.032 ] ] ] } },
{ "type": "Feature", "properties": { "plot_id": "AD-AH-TP-00131", "land_use": "Agricultural", "fill_color": "#66bd63", "owner_name": "Owner 131", "area_sq_meters": 44355 }, "geometry": { "type": "Polygon", "coordinates": [ [ [ 72.47, 23.032 ], [ 72.472, 23.032 ], [ 72.472, 23.034 ], [ 72.47, 23.034 ], [ 72.47, 23.032 ] ] ] } },
{ "type": "Feature", "properties": { "plot_id": "AD-AH-TP-00132", "land_use": "Commercial", "fill_color": "#d73027", "owner_name": "Owner 132", "area_sq_meters": 44355 }, "geometry": { "type": "Polygon", "coordinates": [ [ [ 72.472, 23.032 ], [ 72.474, 23.032 ], [ 72.474, 23.034 ], [ 72.472, 23.034 ], [ 72.472, 23.032 ] ] ] } },
{ "type": "Feature", "properties": { "plot_id": "AD-AH-TP-00133", "land_use": "Institutional", "fill_color": "#4575b4", "owner_name": "Owner 133", "area_sq_meters": 44355 }, "geometry": { "type": "Polygon", "coordinates": [ [ [ 72.474, 23.032 ], [ 72.476, 23.032 ], [ 72.476, 23.034 ], [ 72.474, 23.034 ], [ 72.474, 23.032 ] ] ] } },
{ "type": "Feature", "properties": { "plot_id": "AD-AH-TP-00134", "land_use": "Institutional", "fill_color": "#4575b4", "owner_name": "Owner 134", "area_sq_meters": 44355 }, "geometry": { "type": "Polygon", "coordinates": [ [ [ 72.476, 23.032 ], [ 72.478, 23.032 ], [ 72.478, 23.034 ], [ 72.476, 23.034 ], [ 72.476, 23.032 ] ] ] } },
{ "type": "Feature", "properties": { "plot_id": "AD-AH-TP-00135", "land_use": "Agricultural", "fill_color": "#66bd63", "owner_name": "Owner 135", "area_sq_meters": 44355 }, "geometry": { "type": "Polygon", "coordinates": [ [ [ 72.478, 23.032 ], [ 72.48, 23.032 ], [ 72.48, 23.034 ], [ 72.478, 23.034 ], [ 72.478, 23.032 ] ] ] } },
{ "type": "Feature", "properties": { "plot_id": "AD-AH-TP-00136", "land_use": "Residential", "fill_color": "#fee08b", "owner_name": "Owner 136", "area_sq_meters": 44355 }, "geometry": { "type": "Polygon", "coordinates": [ [ [ 72.48, 23.032 ], [ 72.482, 23.032 ], [ 72.482, 23.034 ], [ 72.48, 23.034 ], [ 72.48, 23.032 ] ] ] } },
{ "type": "Feature", "properties": { "plot_id": "AD-AH-TP-00137", "land_use": "Residential", "fill_color": "#fee08b", "owner_name": "Owner 137", "area_sq_meters": 44355 }, "geometry": { "type": "Polygon", "coordinates": [ [ [ 72.482, 23.032 ], [ 72.484, 23.032 ], [ 72.484, 23.034 ], [ 72.482, 23.034 ], [ 72.482, 23.032 ] ] ] } },
{ "type": "Feature", "properties": { "plot_id": "AD-AH-TP-00138", "land_use": "Commercial", "fill_color": "#d73027", "owner_name": "Owner 138", "area_sq_meters": 44355 }, "geometry": { "type": "Polygon", "coordinates": [ [ [ 72.484, 23.032 ], [ 72.486, 23.032 ], [ 72.486, 23.034 ], [ 72.484, 23.034 ], [ 72.484, 23.032 ] ] ] } },
{ "type": "Feature", "properties": { "plot_id": "AD-AH-TP-00139", "land_use": "Commercial", "fill_color": "#d73027", "owner_name": "Owner 139", "area_sq_meters": 44355 }, "geometry": { "type": "Polygon", "coordinates": [ [ [ 72.486, 23.032 ], [ 72.488, 23.032 ], [ 72.488, 23.034 ], [ 72.486, 23.034 ], [ 72.486, 23.032 ] ] ] } },
{ "type": "Feature", "properties": { "plot_id": "AD-AH-TP-00140", "land_use": "Agricultural", "fill_color": "#66bd63", "owner_name": "Owner 140", "area_sq_meters": 44355 }, "geometry": { "type": "Polygon", "coordinates": [ [ [ 72.488, 23.032 ], [ 72.49, 23.032 ], [ 72.49, 23.034 ], [ 72.488, 23.034 ], [ 72.488, 23.032 ] ] ] } },
{ "type": "Feature", "properties": { "plot_id": "AD-AH-TP-00141", "land_use": "Agricultural", "fill_color": "#66bd63", "owner_name": "Owner 141", "area_sq_meters": 44355 }, "geometry": { "type": "Polygon", "coordinates": [ [ [ 72.45, 23.034 ], [ 72.452, 23.034 ], [ 72.452, 23.036 ], [ 72.45, 23.036 ], [ 72.45, 23.034 ] ] ] } },
{ "type": "Feature", "properties": { "plot_id": "AD-AH-TP-00142", "land_use": "Institutional", "fill_color": "#4575b4", "owner_name": "Owner 142", "area_sq_meters": 44355 }, "geometry": { "type": "Polygon", "coordinates": [ [ [ 72.452, 23.034 ], [ 72.454, 23.034 ], [ 72.454, 23.036 ], [ 72.452, 23.036 ], [ 72.452, 23.034 ] ] ] } },
{ "type": "Feature", "properties": { "plot_id": "AD-AH-TP-00143", "land_use": "Agricultural", "fill_color": "#66bd63", "owner_name": "Owner 143", "area_sq_meters": 44355 }, "geometry": { "type": "Polygon", "coordinates": [ [ [ 72.454, 23.034 ], [ 72.456, 23.034 ], [ 72.456, 23.036 ], [ 72.454, 23.036 ], [ 72.454, 23.034 ] ] ] } },
{ "type": "Feature", "properties": { "plot_id": "AD-AH-TP-00144", "land_use": "Residential", "fill_color": "#fee08b", "owner_name": "Owner 144", "area_sq_meters": 44355 }, "geometry": { "type": "Polygon", "coordinates": [ [ [ 72.456, 23.034 ], [ 72.458, 23.034 ], [ 72.458, 23.036 ], [ 72.456, 23.036 ], [ 72.456, 23.034 ] ] ] } },
{ "type": "Feature", "properties": { "plot_id": "AD-AH-TP-00145", "land_use": "Agricultural", "fill_color": "#66bd63", "owner_name": "Owner 145", "area_sq_meters": 44355 }, "geometry": { "type": "Polygon", "coordinates": [ [ [ 72.458, 23.034 ], [ 72.46, 23.034 ], [ 72.46, 23.036 ], [ 72.458, 23.036 ], [ 72.458, 23.034 ] ] ] } },
{ "type": "Feature", "properties": { "plot_id": "AD-AH-TP-00146", "land_use": "Commercial", "fill_color": "#d73027", "owner_name": "Owner 146", "area_sq_meters": 44355 }, "geometry": { "type": "Polygon", "coordinates": [ [ [ 72.46, 23.034 ], [ 72.462, 23.034 ], [ 72.462, 23.036 ], [ 72.46, 23.036 ], [ 72.46, 23.034 ] ] ] } },
{ "type": "Feature", "properties": { "plot_id": "AD-AH-TP-00147", "land_use": "Commercial", "fill_color": "#d73027", "owner_name": "Owner 147", "area_sq_meters": 44355 }, "geometry": { "type": "Polygon", "coordinates": [ [ [ 72.462, 23.034 ], [ 72.464, 23.034 ], [ 72.464, 23.036 ], [ 72.462, 23.036 ], [ 72.462, 23.034 ] ] ] } },
{ "type": "Feature", "properties": { "plot_id": "AD-AH-TP-00148", "land_use": "Commercial", "fill_color": "#d73027", "owner_name": "Owner 148", "area_sq_meters": 44355 }, "geometry": { "type": "Polygon", "coordinates": [ [ [ 72.464, 23.034 ], [ 72.466, 23.034 ], [ 72.466, 23.036 ], [ 72.464, 23.036 ], [ 72.464, 23.034 ] ] ] } },
{ "type": "Feature", "properties": { "plot_id": "AD-AH-TP-00149", "land_use": "Residential", "fill_color": "#fee08b", "owner_name": "Owner 149", "area_sq_meters": 44355 }, "geometry": { "type": "Polygon", "coordinates": [ [ [ 72.466, 23.034 ], [ 72.468, 23.034 ], [ 72.468, 23.036 ], [ 72.466, 23.036 ], [ 72.466, 23.034 ] ] ] } },
{ "type": "Feature", "properties": { "plot_id": "AD-AH-TP-00150", "land_use": "Residential", "fill_color": "#fee08b", "owner_name": "Owner 150", "area_sq_meters": 44355 }, "geometry": { "type": "Polygon", "coordinates": [ [ [ 72.468, 23.034 ], [ 72.47, 23.034 ], [ 72.47, 23.036 ], [ 72.468, 23.036 ], [ 72.468, 23.034 ] ] ] } },
{ "type": "Feature", "properties": { "plot_id": "AD-AH-TP-00151", "land_use": "Agricultural", "fill_color": "#66bd63", "owner_name": "Owner 151", "area_sq_meters": 44355 }, "geometry": { "type": "Polygon", "coordinates": [ [ [ 72.47, 23.034 ], [ 72.472, 23.034 ], [ 72.472, 23.036 ], [ 72.47, 23.036 ], [ 72.47, 23.034 ] ] ] } },
{ "type": "Feature", "properties": { "plot_id": "AD-AH-TP-00152", "land_use": "Agricultural", "fill_color": "#66bd63", "owner_name": "Owner 152", "area_sq_meters": 44355 }, "geometry": { "type": "Polygon", "coordinates": [ [ [ 72.472, 23.034 ], [ 72.474, 23.034 ], [ 72.474, 23.036 ], [ 72.472, 23.036 ], [ 72.472, 23.034 ] ] ] } },
{ "type": "Feature", "properties": { "plot_id": "AD-AH-TP-00153", "land_use": "Commercial", "fill_color": "#d73027", "owner_name": "Owner 153", "area_sq_meters": 44355 }, "geometry": { "type": "Polygon", "coordinates": [ [ [ 72.474, 23.034 ], [ 72.476, 23.034 ], [ 72.476, 23.036 ], [ 72.474, 23.036 ], [ 72.474, 23.034 ] ] ] } },
{ "type": "Feature", "properties": { "plot_id": "AD-AH-TP-00154", "land_use": "Institutional", "fill_color": "#4575b4", "owner_name": "Owner 154", "area_sq_meters": 44355 }, "geometry": { "type": "Polygon", "coordinates": [ [ [ 72.476, 23.034 ], [ 72.478, 23.034 ], [ 72.478, 23.036 ], [ 72.476, 23.036 ], [ 72.476, 23.034 ] ] ] } },
{ "type": "Feature", "properties": { "plot_id": "AD-AH-TP-00155", "land_use": "Institutional", "fill_color": "#4575b4", "owner_name": "Owner 155", "area_sq_meters": 44355 }, "geometry": { "type": "Polygon", "coordinates": [ [ [ 72.478, 23.034 ], [ 72.48, 23.034 ], [ 72.48, 23.036 ], [ 72.478, 23.036 ], [ 72.478, 23.034 ] ] ] } },
{ "type": "Feature", "properties": { "plot_id": "AD-AH-TP-00156", "land_use": "Institutional", "fill_color": "#4575b4", "owner_name": "Owner 156", "area_sq_meters": 44355 }, "geometry": { "type": "Polygon", "coordinates": [ [ [ 72.48, 23.034 ], [ 72.482, 23.034 ], [ 72.482, 23.036 ], [ 72.48, 23.036 ], [ 72.48, 23.034 ] ] ] } },
{ "type": "Feature", "properties": { "plot_id": "AD-AH-TP-00157", "land_use": "Institutional", "fill_color": "#4575b4", "owner_name": "Owner 157", "area_sq_meters": 44355 }, "geometry": { "type": "Polygon", "coordinates": [ [ [ 72.482, 23.034 ], [ 72.484, 23.034 ], [ 72.484, 23.036 ], [ 72.482, 23.036 ], [ 72.482, 23.034 ] ] ] } },
{ "type": "Feature", "properties": { "plot_id": "AD-AH-TP-00158", "land_use": "Commercial", "fill_color": "#d73027", "owner_name": "Owner 158", "area_sq_meters": 44355 }, "geometry": { "type": "Polygon", "coordinates": [ [ [ 72.484, 23.034 ], [ 72.486, 23.034 ], [ 72.486, 23.036 ], [ 72.484, 23.036 ], [ 72.484, 23.034 ] ] ] } },
{ "type": "Feature", "properties": { "plot_id": "AD-AH-TP-00159", "land_use": "Commercial", "fill_color": "#d73027", "owner_name": "Owner 159", "area_sq_meters": 44355 }, "geometry": { "type": "Polygon", "coordinates": [ [ [ 72.486, 23.034 ], [ 72.488, 23.034 ], [ 72.488, 23.036 ], [ 72.486, 23.036 ], [ 72.486, 23.034 ] ] ] } },
{ "type": "Feature", "properties": { "plot_id": "AD-AH-TP-00160", "land_use": "Commercial", "fill_color": "#d73027", "owner_name": "Owner 160", "area_sq_meters": 44355 }, "geometry": { "type": "Polygon", "coordinates": [ [ [ 72.488, 23.034 ], [ 72.49, 23.034 ], [ 72.49, 23.036 ], [ 72.488, 23.036 ], [ 72.488, 23.034 ] ] ] } },
{ "type": "Feature", "properties": { "plot_id": "AD-AH-TP-00161", "land_use": "Agricultural", "fill_color": "#66bd63", "owner_name": "Owner 161", "area_sq_meters": 44355 }, "geometry": { "type": "Polygon", "coordinates": [ [ [ 72.45, 23.036 ], [ 72.452, 23.036 ], [ 72.452, 23.038 ], [ 72.45, 23.038 ], [ 72.45, 23.036 ] ] ] } },
{ "type": "Feature", "properties": { "plot_id": "AD-AH-TP-00162", "land_use": "Commercial", "fill_color": "#d73027", "owner_name": "Owner 162", "area_sq_meters": 44355 }, "geometry": { "type": "Polygon", "coordinates": [ [ [ 72.452, 23.036 ], [ 72.454, 23.036 ], [ 72.454, 23.038 ], [ 72.452, 23.038 ], [ 72.452, 23.036 ] ] ] } },
{ "type": "Feature", "properties": { "plot_id": "AD-AH-TP-00163", "land_use": "Residential", "fill_color": "#fee08b", "owner_name": "Owner 163", "area_sq_meters": 44355 }, "geometry": { "type": "Polygon", "coordinates": [ [ [ 72.454, 23.036 ], [ 72.456, 23.036 ], [ 72.456, 23.038 ], [ 72.454, 23.038 ], [ 72.454, 23.036 ] ] ] } },
{ "type": "Feature", "properties": { "plot_id": "AD-AH-TP-00164", "land_use": "Institutional", "fill_color": "#4575b4", "owner_name": "Owner 164", "area_sq_meters": 44355 }, "geometry": { "type": "Polygon", "coordinates": [ [ [ 72.456, 23.036 ], [ 72.458, 23.036 ], [ 72.458, 23.038 ], [ 72.456, 23.038 ], [ 72.456, 23.036 ] ] ] } },
{ "type": "Feature", "properties": { "plot_id": "AD-AH-TP-00165", "land_use": "Commercial", "fill_color": "#d73027", "owner_name": "Owner 165", "area_sq_meters": 44355 }, "geometry": { "type": "Polygon", "coordinates": [ [ [ 72.458, 23.036 ], [ 72.46, 23.036 ], [ 72.46, 23.038 ], [ 72.458, 23.038 ], [ 72.458, 23.036 ] ] ] } },
{ "type": "Feature", "properties": { "plot_id": "AD-AH-TP-00166", "land_use": "Agricultural", "fill_color": "#66bd63", "owner_name": "Owner 166", "area_sq_meters": 44355 }, "geometry": { "type": "Polygon", "coordinates": [ [ [ 72.46, 23.036 ], [ 72.462, 23.036 ], [ 72.462, 23.038 ], [ 72.46, 23.038 ], [ 72.46, 23.036 ] ] ] } },
{ "type": "Feature", "properties": { "plot_id": "AD-AH-TP-00167", "land_use": "Commercial", "fill_color": "#d73027", "owner_name": "Owner 167", "area_sq_meters": 44355 }, "geometry": { "type": "Polygon", "coordinates": [ [ [ 72.462, 23.036 ], [ 72.464, 23.036 ], [ 72.464, 23.038 ], [ 72.462, 23.038 ], [ 72.462, 23.036 ] ] ] } },
{ "type": "Feature", "properties": { "plot_id": "AD-AH-TP-00168", "land_use": "Agricultural", "fill_color": "#66bd63", "owner_name": "Owner 168", "area_sq_meters": 44355 }, "geometry": { "type": "Polygon", "coordinates": [ [ [ 72.464, 23.036 ], [ 72.466, 23.036 ], [ 72.466, 23.038 ], [ 72.464, 23.038 ], [ 72.464, 23.036 ] ] ] } },
{ "type": "Feature", "properties": { "plot_id": "AD-AH-TP-00169", "land_use": "Agricultural", "fill_color": "#66bd63", "owner_name": "Owner 169", "area_sq_meters": 44355 }, "geometry": { "type": "Polygon", "coordinates": [ [ [ 72.466, 23.036 ], [ 72.468, 23.036 ], [ 72.468, 23.038 ], [ 72.466, 23.038 ], [ 72.466, 23.036 ] ] ] } },
{ "type": "Feature", "properties": { "plot_id": "AD-AH-TP-00170", "land_use": "Commercial", "fill_color": "#d73027", "owner_name": "Owner 170", "area_sq_meters": 44355 }, "geometry": { "type": "Polygon", "coordinates": [ [ [ 72.468, 23.036 ], [ 72.47, 23.036 ], [ 72.47, 23.038 ], [ 72.468, 23.038 ], [ 72.468, 23.036 ] ] ] } },
{ "type": "Feature", "properties": { "plot_id": "AD-AH-TP-00171", "land_use": "Institutional", "fill_color": "#4575b4", "owner_name": "Owner 171", "area_sq_meters": 44355 }, "geometry": { "type": "Polygon", "coordinates": [ [ [ 72.47, 23.036 ], [ 72.472, 23.036 ], [ 72.472, 23.038 ], [ 72.47, 23.038 ], [ 72.47, 23.036 ] ] ] } },
{ "type": "Feature", "properties": { "plot_id": "AD-AH-TP-00172", "land_use": "Institutional", "fill_color": "#4575b4", "owner_name": "Owner 172", "area_sq_meters": 44355 }, "geometry": { "type": "Polygon", "coordinates": [ [ [ 72.472, 23.036 ], [ 72.474, 23.036 ], [ 72.474, 23.038 ], [ 72.472, 23.038 ], [ 72.472, 23.036 ] ] ] } },
{ "type": "Feature", "properties": { "plot_id": "AD-AH-TP-00173", "land_use": "Agricultural", "fill_color": "#66bd63", "owner_name": "Owner 173", "area_sq_meters": 44355 }, "geometry": { "type": "Polygon", "coordinates": [ [ [ 72.474, 23.036 ], [ 72.476, 23.036 ], [ 72.476, 23.038 ], [ 72.474, 23.038 ], [ 72.474, 23.036 ] ] ] } },
{ "type": "Feature", "properties": { "plot_id": "AD-AH-TP-00174", "land_use": "Institutional", "fill_color": "#4575b4", "owner_name": "Owner 174", "area_sq_meters": 44355 }, "geometry": { "type": "Polygon", "coordinates": [ [ [ 72.476, 23.036 ], [ 72.478, 23.036 ], [ 72.478, 23.038 ], [ 72.476, 23.038 ], [ 72.476, 23.036 ] ] ] } },
{ "type": "Feature", "properties": { "plot_id": "AD-AH-TP-00175", "land_use": "Residential", "fill_color": "#fee08b", "owner_name": "Owner 175", "area_sq_meters": 44355 }, "geometry": { "type": "Polygon", "coordinates": [ [ [ 72.478, 23.036 ], [ 72.48, 23.036 ], [ 72.48, 23.038 ], [ 72.478, 23.038 ], [ 72.478, 23.036 ] ] ] } },
{ "type": "Feature", "properties": { "plot_id": "AD-AH-TP-00176", "land_use": "Institutional", "fill_color": "#4575b4", "owner_name": "Owner 176", "area_sq_meters": 44355 }, "geometry": { "type": "Polygon", "coordinates": [ [ [ 72.48, 23.036 ], [ 72.482, 23.036 ], [ 72.482, 23.038 ], [ 72.48, 23.038 ], [ 72.48, 23.036 ] ] ] } },
{ "type": "Feature", "properties": { "plot_id": "AD-AH-TP-00177", "land_use": "Agricultural", "fill_color": "#66bd63", "owner_name": "Owner 177", "area_sq_meters": 44355 }, "geometry": { "type": "Polygon", "coordinates": [ [ [ 72.482, 23.036 ], [ 72.484, 23.036 ], [ 72.484, 23.038 ], [ 72.482, 23.038 ], [ 72.482, 23.036 ] ] ] } },
{ "type": "Feature", "properties": { "plot_id": "AD-AH-TP-00178", "land_use": "Institutional", "fill_color": "#4575b4", "owner_name": "Owner 178", "area_sq_meters": 44355 }, "geometry": { "type": "Polygon", "coordinates": [ [ [ 72.484, 23.036 ], [ 72.486, 23.036 ], [ 72.486, 23.038 ], [ 72.484, 23.038 ], [ 72.484, 23.036 ] ] ] } },
{ "type": "Feature", "properties": { "plot_id": "AD-AH-TP-00179", "land_use": "Institutional", "fill_color": "#4575b4", "owner_name": "Owner 179", "area_sq_meters": 44355 }, "geometry": { "type": "Polygon", "coordinates": [ [ [ 72.486, 23.036 ], [ 72.488, 23.036 ], [ 72.488, 23.038 ], [ 72.486, 23.038 ], [ 72.486, 23.036 ] ] ] } },
{ "type": "Feature", "properties": { "plot_id": "AD-AH-TP-00180", "land_use": "Residential", "fill_color": "#fee08b", "owner_name": "Owner 180", "area_sq_meters": 44355 }, "geometry": { "type": "Polygon", "coordinates": [ [ [ 72.488, 23.036 ], [ 72.49, 23.036 ], [ 72.49, 23.038 ], [ 72.488, 23.038 ], [ 72.488, 23.036 ] ] ] } },
{ "type": "Feature", "properties": { "plot_id": "AD-AH-TP-00181", "land_use": "Agricultural", "fill_color": "#66bd63", "owner_name": "Owner 181", "area_sq_meters": 44355 }, "geometry": { "type": "Polygon", "coordinates": [ [ [ 72.45, 23.038 ], [ 72.452, 23.038 ], [ 72.452, 23.04 ], [ 72.45, 23.04 ], [ 72.45, 23.038 ] ] ] } },
{ "type": "Feature", "properties": { "plot_id": "AD-AH-TP-00182", "land_use": "Institutional", "fill_color": "#4575b4", "owner_name": "Owner 182", "area_sq_meters": 44355 }, "geometry": { "type": "Polygon", "coordinates": [ [ [ 72.452, 23.038 ], [ 72.454, 23.038 ], [ 72.454, 23.04 ], [ 72.452, 23.04 ], [ 72.452, 23.038 ] ] ] } },
{ "type": "Feature", "properties": { "plot_id": "AD-AH-TP-00183", "land_use": "Residential", "fill_color": "#fee08b", "owner_name": "Owner 183", "area_sq_meters": 44355 }, "geometry": { "type": "Polygon", "coordinates": [ [ [ 72.454, 23.038 ], [ 72.456, 23.038 ], [ 72.456, 23.04 ], [ 72.454, 23.04 ], [ 72.454, 23.038 ] ] ] } },
{ "type": "Feature", "properties": { "plot_id": "AD-AH-TP-00184", "land_use": "Agricultural", "fill_color": "#66bd63", "owner_name": "Owner 184", "area_sq_meters": 44355 }, "geometry": { "type": "Polygon", "coordinates": [ [ [ 72.456, 23.038 ], [ 72.458, 23.038 ], [ 72.458, 23.04 ], [ 72.456, 23.04 ], [ 72.456, 23.038 ] ] ] } },
{ "type": "Feature", "properties": { "plot_id": "AD-AH-TP-00185", "land_use": "Commercial", "fill_color": "#d73027", "owner_name": "Owner 185", "area_sq_meters": 44355 }, "geometry": { "type": "Polygon", "coordinates": [ [ [ 72.458, 23.038 ], [ 72.46, 23.038 ], [ 72.46, 23.04 ], [ 72.458, 23.04 ], [ 72.458, 23.038 ] ] ] } },
{ "type": "Feature", "properties": { "plot_id": "AD-AH-TP-00186", "land_use": "Commercial", "fill_color": "#d73027", "owner_name": "Owner 186", "area_sq_meters": 44355 }, "geometry": { "type": "Polygon", "coordinates": [ [ [ 72.46, 23.038 ], [ 72.462, 23.038 ], [ 72.462, 23.04 ], [ 72.46, 23.04 ], [ 72.46, 23.038 ] ] ] } },
{ "type": "Feature", "properties": { "plot_id": "AD-AH-TP-00187", "land_use": "Commercial", "fill_color": "#d73027", "owner_name": "Owner 187", "area_sq_meters": 44355 }, "geometry": { "type": "Polygon", "coordinates": [ [ [ 72.462, 23.038 ], [ 72.464, 23.038 ], [ 72.464, 23.04 ], [ 72.462, 23.04 ], [ 72.462, 23.038 ] ] ] } },
{ "type": "Feature", "properties": { "plot_id": "AD-AH-TP-00188", "land_use": "Commercial", "fill_color": "#d73027", "owner_name": "Owner 188", "area_sq_meters": 44355 }, "geometry": { "type": "Polygon", "coordinates": [ [ [ 72.464, 23.038 ], [ 72.466, 23.038 ], [ 72.466, 23.04 ], [ 72.464, 23.04 ], [ 72.464, 23.038 ] ] ] } },
{ "type": "Feature", "properties": { "plot_id": "AD-AH-TP-00189", "land_use": "Institutional", "fill_color": "#4575b4", "owner_name": "Owner 189", "area_sq_meters": 44355 }, "geometry": { "type": "Polygon", "coordinates": [ [ [ 72.466, 23.038 ], [ 72.468, 23.038 ], [ 72.468, 23.04 ], [ 72.466, 23.04 ], [ 72.466, 23.038 ] ] ] } },
{ "type": "Feature", "properties": { "plot_id": "AD-AH-TP-00190", "land_use": "Residential", "fill_color": "#fee08b", "owner_name": "Owner 190", "area_sq_meters": 44355 }, "geometry": { "type": "Polygon", "coordinates": [ [ [ 72.468, 23.038 ], [ 72.47, 23.038 ], [ 72.47, 23.04 ], [ 72.468, 23.04 ], [ 72.468, 23.038 ] ] ] } },
{ "type": "Feature", "properties": { "plot_id": "AD-AH-TP-00191", "land_use": "Agricultural", "fill_color": "#66bd63", "owner_name": "Owner 191", "area_sq_meters": 44355 }, "geometry": { "type": "Polygon", "coordinates": [ [ [ 72.47, 23.038 ], [ 72.472, 23.038 ], [ 72.472, 23.04 ], [ 72.47, 23.04 ], [ 72.47, 23.038 ] ] ] } },
{ "type": "Feature", "properties": { "plot_id": "AD-AH-TP-00192", "land_use": "Residential", "fill_color": "#fee08b", "owner_name": "Owner 192", "area_sq_meters": 44355 }, "geometry": { "type": "Polygon", "coordinates": [ [ [ 72.472, 23.038 ], [ 72.474, 23.038 ], [ 72.474, 23.04 ], [ 72.472, 23.04 ], [ 72.472, 23.038 ] ] ] } },
{ "type": "Feature", "properties": { "plot_id": "AD-AH-TP-00193", "land_use": "Institutional", "fill_color": "#4575b4", "owner_name": "Owner 193", "area_sq_meters": 44355 }, "geometry": { "type": "Polygon", "coordinates": [ [ [ 72.474, 23.038 ], [ 72.476, 23.038 ], [ 72.476, 23.04 ], [ 72.474, 23.04 ], [ 72.474, 23.038 ] ] ] } },
{ "type": "Feature", "properties": { "plot_id": "AD-AH-TP-00194", "land_use": "Institutional", "fill_color": "#4575b4", "owner_name": "Owner 194", "area_sq_meters": 44355 }, "geometry": { "type": "Polygon", "coordinates": [ [ [ 72.476, 23.038 ], [ 72.478, 23.038 ], [ 72.478, 23.04 ], [ 72.476, 23.04 ], [ 72.476, 23.038 ] ] ] } },
{ "type": "Feature", "properties": { "plot_id": "AD-AH-TP-00195", "land_use": "Residential", "fill_color": "#fee08b", "owner_name": "Owner 195", "area_sq_meters": 44355 }, "geometry": { "type": "Polygon", "coordinates": [ [ [ 72.478, 23.038 ], [ 72.48, 23.038 ], [ 72.48, 23.04 ], [ 72.478, 23.04 ], [ 72.478, 23.038 ] ] ] } },
{ "type": "Feature", "properties": { "plot_id": "AD-AH-TP-00196", "land_use": "Residential", "fill_color": "#fee08b", "owner_name": "Owner 196", "area_sq_meters": 44355 }, "geometry": { "type": "Polygon", "coordinates": [ [ [ 72.48, 23.038 ], [ 72.482, 23.038 ], [ 72.482, 23.04 ], [ 72.48, 23.04 ], [ 72.48, 23.038 ] ] ] } },
{ "type": "Feature", "properties": { "plot_id": "AD-AH-TP-00197", "land_use": "Agricultural", "fill_color": "#66bd63", "owner_name": "Owner 197", "area_sq_meters": 44355 }, "geometry": { "type": "Polygon", "coordinates": [ [ [ 72.482, 23.038 ], [ 72.484, 23.038 ], [ 72.484, 23.04 ], [ 72.482, 23.04 ], [ 72.482, 23.038 ] ] ] } },
{ "type": "Feature", "properties": { "plot_id": "AD-AH-TP-00198", "land_use": "Commercial", "fill_color": "#d73027", "owner_name": "Owner 198", "area_sq_meters": 44355 }, "geometry": { "type": "Polygon", "coordinates": [ [ [ 72.484, 23.038 ], [ 72.486, 23.038 ], [ 72.486, 23.04 ], [ 72.484, 23.04 ], [ 72.484, 23.038 ] ] ] } },
{ "type": "Feature", "properties": { "plot_id": "AD-AH-TP-00199", "land_use": "Agricultural", "fill_color": "#66bd63", "owner_name": "Owner 199", "area_sq_meters": 44355 }, "geometry": { "type": "Polygon", "coordinates": [ [ [ 72.486, 23.038 ], [ 72.488, 23.038 ], [ 72.488, 23.04 ], [ 72.486, 23.04 ], [ 72.486, 23.038 ] ] ] } },
{ "type": "Feature", "properties": { "plot_id": "AD-AH-TP-00200", "land_use": "Agricultural", "fill_color": "#66bd63", "owner_name": "Owner 200", "area_sq_meters": 44355 }, "geometry": { "type": "Polygon", "coordinates": [ [ [ 72.488, 23.038 ], [ 72.49, 23.038 ], [ 72.49, 23.04 ], [ 72.488, 23.04 ], [ 72.488, 23.038 ] ] ] } },
{ "type": "Feature", "properties": { "plot_id": "AD-AH-TP-00201", "land_use": "Residential", "fill_color": "#fee08b", "owner_name": "Owner 201", "area_sq_meters": 44355 }, "geometry": { "type": "Polygon", "coordinates": [ [ [ 72.45, 23.04 ], [ 72.452, 23.04 ], [ 72.452, 23.042 ], [ 72.45, 23.042 ], [ 72.45, 23.04 ] ] ] } },
{ "type": "Feature", "properties": { "plot_id": "AD-AH-TP-00202", "land_use": "Agricultural", "fill_color": "#66bd63", "owner_name": "Owner 202", "area_sq_meters": 44355 }, "geometry": { "type": "Polygon", "coordinates": [ [ [ 72.452, 23.04 ], [ 72.454, 23.04 ], [ 72.454, 23.042 ], [ 72.452, 23.042 ], [ 72.452, 23.04 ] ] ] } },
{ "type": "Feature", "properties": { "plot_id": "AD-AH-TP-00203", "land_use": "Residential", "fill_color": "#fee08b", "owner_name": "Owner 203", "area_sq_meters": 44355 }, "geometry": { "type": "Polygon", "coordinates": [ [ [ 72.454, 23.04 ], [ 72.456, 23.04 ], [ 72.456, 23.042 ], [ 72.454, 23.042 ], [ 72.454, 23.04 ] ] ] } },
{ "type": "Feature", "properties": { "plot_id": "AD-AH-TP-00204", "land_use": "Agricultural", "fill_color": "#66bd63", "owner_name": "Owner 204", "area_sq_meters": 44355 }, "geometry": { "type": "Polygon", "coordinates": [ [ [ 72.456, 23.04 ], [ 72.458, 23.04 ], [ 72.458, 23.042 ], [ 72.456, 23.042 ], [ 72.456, 23.04 ] ] ] } },
{ "type": "Feature", "properties": { "plot_id": "AD-AH-TP-00205", "land_use": "Agricultural", "fill_color": "#66bd63", "owner_name": "Owner 205", "area_sq_meters": 44355 }, "geometry": { "type": "Polygon", "coordinates": [ [ [ 72.458, 23.04 ], [ 72.46, 23.04 ], [ 72.46, 23.042 ], [ 72.458, 23.042 ], [ 72.458, 23.04 ] ] ] } },
{ "type": "Feature", "properties": { "plot_id": "AD-AH-TP-00206", "land_use": "Residential", "fill_color": "#fee08b", "owner_name": "Owner 206", "area_sq_meters": 44355 }, "geometry": { "type": "Polygon", "coordinates": [ [ [ 72.46, 23.04 ], [ 72.462, 23.04 ], [ 72.462, 23.042 ], [ 72.46, 23.042 ], [ 72.46, 23.04 ] ] ] } },
{ "type": "Feature", "properties": { "plot_id": "AD-AH-TP-00207", "land_use": "Institutional", "fill_color": "#4575b4", "owner_name": "Owner 207", "area_sq_meters": 44355 }, "geometry": { "type": "Polygon", "coordinates": [ [ [ 72.462, 23.04 ], [ 72.464, 23.04 ], [ 72.464, 23.042 ], [ 72.462, 23.042 ], [ 72.462, 23.04 ] ] ] } },
{ "type": "Feature", "properties": { "plot_id": "AD-AH-TP-00208", "land_use": "Agricultural", "fill_color": "#66bd63", "owner_name": "Owner 208", "area_sq_meters": 44355 }, "geometry": { "type": "Polygon", "coordinates": [ [ [ 72.464, 23.04 ], [ 72.466, 23.04 ], [ 72.466, 23.042 ], [ 72.464, 23.042 ], [ 72.464, 23.04 ] ] ] } },
{ "type": "Feature", "properties": { "plot_id": "AD-AH-TP-00209", "land_use": "Agricultural", "fill_color": "#66bd63", "owner_name": "Owner 209", "area_sq_meters": 44355 }, "geometry": { "type": "Polygon", "coordinates": [ [ [ 72.466, 23.04 ], [ 72.468, 23.04 ], [ 72.468, 23.042 ], [ 72.466, 23.042 ], [ 72.466, 23.04 ] ] ] } },
{ "type": "Feature", "properties": { "plot_id": "AD-AH-TP-00210", "land_use": "Institutional", "fill_color": "#4575b4", "owner_name": "Owner 210", "area_sq_meters": 44355 }, "geometry": { "type": "Polygon", "coordinates": [ [ [ 72.468, 23.04 ], [ 72.47, 23.04 ], [ 72.47, 23.042 ], [ 72.468, 23.042 ], [ 72.468, 23.04 ] ] ] } },
{ "type": "Feature", "properties": { "plot_id": "AD-AH-TP-00211", "land_use": "Residential", "fill_color": "#fee08b", "owner_name": "Owner 211", "area_sq_meters": 44355 }, "geometry": { "type": "Polygon", "coordinates": [ [ [ 72.47, 23.04 ], [ 72.472, 23.04 ], [ 72.472, 23.042 ], [ 72.47, 23.042 ], [ 72.47, 23.04 ] ] ] } },
{ "type": "Feature", "properties": { "plot_id": "AD-AH-TP-00212", "land_use": "Residential", "fill_color": "#fee08b", "owner_name": "Owner 212", "area_sq_meters": 44355 }, "geometry": { "type": "Polygon", "coordinates": [ [ [ 72.472, 23.04 ], [ 72.474, 23.04 ], [ 72.474, 23.042 ], [ 72.472, 23.042 ], [ 72.472, 23.04 ] ] ] } },
{ "type": "Feature", "properties": { "plot_id": "AD-AH-TP-00213", "land_use": "Agricultural", "fill_color": "#66bd63", "owner_name": "Owner 213", "area_sq_meters": 44355 }, "geometry": { "type": "Polygon", "coordinates": [ [ [ 72.474, 23.04 ], [ 72.476, 23.04 ], [ 72.476, 23.042 ], [ 72.474, 23.042 ], [ 72.474, 23.04 ] ] ] } },
{ "type": "Feature", "properties": { "plot_id": "AD-AH-TP-00214", "land_use": "Commercial", "fill_color": "#d73027", "owner_name": "Owner 214", "area_sq_meters": 44355 }, "geometry": { "type": "Polygon", "coordinates": [ [ [ 72.476, 23.04 ], [ 72.478, 23.04 ], [ 72.478, 23.042 ], [ 72.476, 23.042 ], [ 72.476, 23.04 ] ] ] } },
{ "type": "Feature", "properties": { "plot_id": "AD-AH-TP-00215", "land_use": "Residential", "fill_color": "#fee08b", "owner_name": "Owner 215", "area_sq_meters": 44355 }, "geometry": { "type": "Polygon", "coordinates": [ [ [ 72.478, 23.04 ], [ 72.48, 23.04 ], [ 72.48, 23.042 ], [ 72.478, 23.042 ], [ 72.478, 23.04 ] ] ] } },
{ "type": "Feature", "properties": { "plot_id": "AD-AH-TP-00216", "land_use": "Commercial", "fill_color": "#d73027", "owner_name": "Owner 216", "area_sq_meters": 44355 }, "geometry": { "type": "Polygon", "coordinates": [ [ [ 72.48, 23.04 ], [ 72.482, 23.04 ], [ 72.482, 23.042 ], [ 72.48, 23.042 ], [ 72.48, 23.04 ] ] ] } },
{ "type": "Feature", "properties": { "plot_id": "AD-AH-TP-00217", "land_use": "Agricultural", "fill_color": "#66bd63", "owner_name": "Owner 217", "area_sq_meters": 44355 }, "geometry": { "type": "Polygon", "coordinates": [ [ [ 72.482, 23.04 ], [ 72.484, 23.04 ], [ 72.484, 23.042 ], [ 72.482, 23.042 ], [ 72.482, 23.04 ] ] ] } },
{ "type": "Feature", "properties": { "plot_id": "AD-AH-TP-00218", "land_use": "Commercial", "fill_color": "#d73027", "owner_name": "Owner 218", "area_sq_meters": 44355 }, "geometry": { "type": "Polygon", "coordinates": [ [ [ 72.484, 23.04 ], [ 72.486, 23.04 ], [ 72.486, 23.042 ], [ 72.484, 23.042 ], [ 72.484, 23.04 ] ] ] } },
{ "type": "Feature", "properties": { "plot_id": "AD-AH-TP-00219", "land_use": "Commercial", "fill_color": "#d73027", "owner_name": "Owner 219", "area_sq_meters": 44355 }, "geometry": { "type": "Polygon", "coordinates": [ [ [ 72.486, 23.04 ], [ 72.488, 23.04 ], [ 72.488, 23.042 ], [ 72.486, 23.042 ], [ 72.486, 23.04 ] ] ] } },
{ "type": "Feature", "properties": { "plot_id": "AD-AH-TP-00220", "land_use": "Agricultural", "fill_color": "#66bd63", "owner_name": "Owner 220", "area_sq_meters": 44355 }, "geometry": { "type": "Polygon", "coordinates": [ [ [ 72.488, 23.04 ], [ 72.49, 23.04 ], [ 72.49, 23.042 ], [ 72.488, 23.042 ], [ 72.488, 23.04 ] ] ] } },
{ "type": "Feature", "properties": { "plot_id": "AD-AH-TP-00221", "land_use": "Commercial", "fill_color": "#d73027", "owner_name": "Owner 221", "area_sq_meters": 44355 }, "geometry": { "type": "Polygon", "coordinates": [ [ [ 72.45, 23.042 ], [ 72.452, 23.042 ], [ 72.452, 23.044 ], [ 72.45, 23.044 ], [ 72.45, 23.042 ] ] ] } },
{ "type": "Feature", "properties": { "plot_id": "AD-AH-TP-00222", "land_use": "Residential", "fill_color": "#fee08b", "owner_name": "Owner 222", "area_sq_meters": 44355 }, "geometry": { "type": "Polygon", "coordinates": [ [ [ 72.452, 23.042 ], [ 72.454, 23.042 ], [ 72.454, 23.044 ], [ 72.452, 23.044 ], [ 72.452, 23.042 ] ] ] } },
{ "type": "Feature", "properties": { "plot_id": "AD-AH-TP-00223", "land_use": "Institutional", "fill_color": "#4575b4", "owner_name": "Owner 223", "area_sq_meters": 44355 }, "geometry": { "type": "Polygon", "coordinates": [ [ [ 72.454, 23.042 ], [ 72.456, 23.042 ], [ 72.456, 23.044 ], [ 72.454, 23.044 ], [ 72.454, 23.042 ] ] ] } },
{ "type": "Feature", "properties": { "plot_id": "AD-AH-TP-00224", "land_use": "Residential", "fill_color": "#fee08b", "owner_name": "Owner 224", "area_sq_meters": 44355 }, "geometry": { "type": "Polygon", "coordinates": [ [ [ 72.456, 23.042 ], [ 72.458, 23.042 ], [ 72.458, 23.044 ], [ 72.456, 23.044 ], [ 72.456, 23.042 ] ] ] } },
{ "type": "Feature", "properties": { "plot_id": "AD-AH-TP-00225", "land_use": "Institutional", "fill_color": "#4575b4", "owner_name": "Owner 225", "area_sq_meters": 44355 }, "geometry": { "type": "Polygon", "coordinates": [ [ [ 72.458, 23.042 ], [ 72.46, 23.042 ], [ 72.46, 23.044 ], [ 72.458, 23.044 ], [ 72.458, 23.042 ] ] ] } },
{ "type": "Feature", "properties": { "plot_id": "AD-AH-TP-00226", "land_use": "Residential", "fill_color": "#fee08b", "owner_name": "Owner 226", "area_sq_meters": 44355 }, "geometry": { "type": "Polygon", "coordinates": [ [ [ 72.46, 23.042 ], [ 72.462, 23.042 ], [ 72.462, 23.044 ], [ 72.46, 23.044 ], [ 72.46, 23.042 ] ] ] } },
{ "type": "Feature", "properties": { "plot_id": "AD-AH-TP-00227", "land_use": "Institutional", "fill_color": "#4575b4", "owner_name": "Owner 227", "area_sq_meters": 44355 }, "geometry": { "type": "Polygon", "coordinates": [ [ [ 72.462, 23.042 ], [ 72.464, 23.042 ], [ 72.464, 23.044 ], [ 72.462, 23.044 ], [ 72.462, 23.042 ] ] ] } },
{ "type": "Feature", "properties": { "plot_id": "AD-AH-TP-00228", "land_use": "Agricultural", "fill_color": "#66bd63", "owner_name": "Owner 228", "area_sq_meters": 44355 }, "geometry": { "type": "Polygon", "coordinates": [ [ [ 72.464, 23.042 ], [ 72.466, 23.042 ], [ 72.466, 23.044 ], [ 72.464, 23.044 ], [ 72.464, 23.042 ] ] ] } },
{ "type": "Feature", "properties": { "plot_id": "AD-AH-TP-00229", "land_use": "Institutional", "fill_color": "#4575b4", "owner_name": "Owner 229", "area_sq_meters": 44355 }, "geometry": { "type": "Polygon", "coordinates": [ [ [ 72.466, 23.042 ], [ 72.468, 23.042 ], [ 72.468, 23.044 ], [ 72.466, 23.044 ], [ 72.466, 23.042 ] ] ] } },
{ "type": "Feature", "properties": { "plot_id": "AD-AH-TP-00230", "land_use": "Agricultural", "fill_color": "#66bd63", "owner_name": "Owner 230", "area_sq_meters": 44355 }, "geometry": { "type": "Polygon", "coordinates": [ [ [ 72.468, 23.042 ], [ 72.47, 23.042 ], [ 72.47, 23.044 ], [ 72.468, 23.044 ], [ 72.468, 23.042 ] ] ] } },
{ "type": "Feature", "properties": { "plot_id": "AD-AH-TP-00231", "land_use": "Institutional", "fill_color": "#4575b4", "owner_name": "Owner 231", "area_sq_meters": 44355 }, "geometry": { "type": "Polygon", "coordinates": [ [ [ 72.47, 23.042 ], [ 72.472, 23.042 ], [ 72.472, 23.044 ], [ 72.47, 23.044 ], [ 72.47, 23.042 ] ] ] } },
{ "type": "Feature", "properties": { "plot_id": "AD-AH-TP-00232", "land_use": "Agricultural", "fill_color": "#66bd63", "owner_name": "Owner 232", "area_sq_meters": 44355 }, "geometry": { "type": "Polygon", "coordinates": [ [ [ 72.472, 23.042 ], [ 72.474, 23.042 ], [ 72.474, 23.044 ], [ 72.472, 23.044 ], [ 72.472, 23.042 ] ] ] } },
{ "type": "Feature", "properties": { "plot_id": "AD-AH-TP-00233", "land_use": "Commercial", "fill_color": "#d73027", "owner_name": "Owner 233", "area_sq_meters": 44355 }, "geometry": { "type": "Polygon", "coordinates": [ [ [ 72.474, 23.042 ], [ 72.476, 23.042 ], [ 72.476, 23.044 ], [ 72.474, 23.044 ], [ 72.474, 23.042 ] ] ] } },
{ "type": "Feature", "properties": { "plot_id": "AD-AH-TP-00234", "land_use": "Commercial", "fill_color": "#d73027", "owner_name": "Owner 234", "area_sq_meters": 44355 }, "geometry": { "type": "Polygon", "coordinates": [ [ [ 72.476, 23.042 ], [ 72.478, 23.042 ], [ 72.478, 23.044 ], [ 72.476, 23.044 ], [ 72.476, 23.042 ] ] ] } },
{ "type": "Feature", "properties": { "plot_id": "AD-AH-TP-00235", "land_use": "Residential", "fill_color": "#fee08b", "owner_name": "Owner 235", "area_sq_meters": 44355 }, "geometry": { "type": "Polygon", "coordinates": [ [ [ 72.478, 23.042 ], [ 72.48, 23.042 ], [ 72.48, 23.044 ], [ 72.478, 23.044 ], [ 72.478, 23.042 ] ] ] } },
{ "type": "Feature", "properties": { "plot_id": "AD-AH-TP-00236", "land_use": "Commercial", "fill_color": "#d73027", "owner_name": "Owner 236", "area_sq_meters": 44355 }, "geometry": { "type": "Polygon", "coordinates": [ [ [ 72.48, 23.042 ], [ 72.482, 23.042 ], [ 72.482, 23.044 ], [ 72.48, 23.044 ], [ 72.48, 23.042 ] ] ] } },
{ "type": "Feature", "properties": { "plot_id": "AD-AH-TP-00237", "land_use": "Commercial", "fill_color": "#d73027", "owner_name": "Owner 237", "area_sq_meters": 44355 }, "geometry": { "type": "Polygon", "coordinates": [ [ [ 72.482, 23.042 ], [ 72.484, 23.042 ], [ 72.484, 23.044 ], [ 72.482, 23.044 ], [ 72.482, 23.042 ] ] ] } },
{ "type": "Feature", "properties": { "plot_id": "AD-AH-TP-00238", "land_use": "Agricultural", "fill_color": "#66bd63", "owner_name": "Owner 238", "area_sq_meters": 44355 }, "geometry": { "type": "Polygon", "coordinates": [ [ [ 72.484, 23.042 ], [ 72.486, 23.042 ], [ 72.486, 23.044 ], [ 72.484, 23.044 ], [ 72.484, 23.042 ] ] ] } },
{ "type": "Feature", "properties": { "plot_id": "AD-AH-TP-00239", "land_use": "Institutional", "fill_color": "#4575b4", "owner_name": "Owner 239", "area_sq_meters": 44355 }, "geometry": { "type": "Polygon", "coordinates": [ [ [ 72.486, 23.042 ], [ 72.488, 23.042 ], [ 72.488, 23.044 ], [ 72.486, 23.044 ], [ 72.486, 23.042 ] ] ] } },
{ "type": "Feature", "properties": { "plot_id": "AD-AH-TP-00240", "land_use": "Institutional", "fill_color": "#4575b4", "owner_name": "Owner 240", "area_sq_meters": 44355 }, "geometry": { "type": "Polygon", "coordinates": [ [ [ 72.488, 23.042 ], [ 72.49, 23.042 ], [ 72.49, 23.044 ], [ 72.488, 23.044 ], [ 72.488, 23.042 ] ] ] } },
{ "type": "Feature", "properties": { "plot_id": "AD-AH-TP-00241", "land_use": "Institutional", "fill_color": "#4575b4", "owner_name": "Owner 241", "area_sq_meters": 44355 }, "geometry": { "type": "Polygon", "coordinates": [ [ [ 72.45, 23.044 ], [ 72.452, 23.044 ], [ 72.452, 23.046 ], [ 72.45, 23.046 ], [ 72.45, 23.044 ] ] ] } },
{ "type": "Feature", "properties": { "plot_id": "AD-AH-TP-00242", "land_use": "Agricultural", "fill_color": "#66bd63", "owner_name": "Owner 242", "area_sq_meters": 44355 }, "geometry": { "type": "Polygon", "coordinates": [ [ [ 72.452, 23.044 ], [ 72.454, 23.044 ], [ 72.454, 23.046 ], [ 72.452, 23.046 ], [ 72.452, 23.044 ] ] ] } },
{ "type": "Feature", "properties": { "plot_id": "AD-AH-TP-00243", "land_use": "Commercial", "fill_color": "#d73027", "owner_name": "Owner 243", "area_sq_meters": 44355 }, "geometry": { "type": "Polygon", "coordinates": [ [ [ 72.454, 23.044 ], [ 72.456, 23.044 ], [ 72.456, 23.046 ], [ 72.454, 23.046 ], [ 72.454, 23.044 ] ] ] } },
{ "type": "Feature", "properties": { "plot_id": "AD-AH-TP-00244", "land_use": "Institutional", "fill_color": "#4575b4", "owner_name": "Owner 244", "area_sq_meters": 44355 }, "geometry": { "type": "Polygon", "coordinates": [ [ [ 72.456, 23.044 ], [ 72.458, 23.044 ], [ 72.458, 23.046 ], [ 72.456, 23.046 ], [ 72.456, 23.044 ] ] ] } },
{ "type": "Feature", "properties": { "plot_id": "AD-AH-TP-00245", "land_use": "Institutional", "fill_color": "#4575b4", "owner_name": "Owner 245", "area_sq_meters": 44355 }, "geometry": { "type": "Polygon", "coordinates": [ [ [ 72.458, 23.044 ], [ 72.46, 23.044 ], [ 72.46, 23.046 ], [ 72.458, 23.046 ], [ 72.458, 23.044 ] ] ] } },
{ "type": "Feature", "properties": { "plot_id": "AD-AH-TP-00246", "land_use": "Residential", "fill_color": "#fee08b", "owner_name": "Owner 246", "area_sq_meters": 44355 }, "geometry": { "type": "Polygon", "coordinates": [ [ [ 72.46, 23.044 ], [ 72.462, 23.044 ], [ 72.462, 23.046 ], [ 72.46, 23.046 ], [ 72.46, 23.044 ] ] ] } },
{ "type": "Feature", "properties": { "plot_id": "AD-AH-TP-00247", "land_use": "Commercial", "fill_color": "#d73027", "owner_name": "Owner 247", "area_sq_meters": 44355 }, "geometry": { "type": "Polygon", "coordinates": [ [ [ 72.462, 23.044 ], [ 72.464, 23.044 ], [ 72.464, 23.046 ], [ 72.462, 23.046 ], [ 72.462, 23.044 ] ] ] } },
{ "type": "Feature", "properties": { "plot_id": "AD-AH-TP-00248", "land_use": "Residential", "fill_color": "#fee08b", "owner_name": "Owner 248", "area_sq_meters": 44355 }, "geometry": { "type": "Polygon", "coordinates": [ [ [ 72.464, 23.044 ], [ 72.466, 23.044 ], [ 72.466, 23.046 ], [ 72.464, 23.046 ], [ 72.464, 23.044 ] ] ] } },
{ "type": "Feature", "properties": { "plot_id": "AD-AH-TP-00249", "land_use": "Institutional", "fill_color": "#4575b4", "owner_name": "Owner 249", "area_sq_meters": 44355 }, "geometry": { "type": "Polygon", "coordinates": [ [ [ 72.466, 23.044 ], [ 72.468, 23.044 ], [ 72.468, 23.046 ], [ 72.466, 23.046 ], [ 72.466, 23.044 ] ] ] } },
{ "type": "Feature", "properties": { "plot_id": "AD-AH-TP-00250", "land_use": "Agricultural", "fill_color": "#66bd63", "owner_name": "Owner 250", "area_sq_meters": 44355 }, "geometry": { "type": "Polygon", "coordinates": [ [ [ 72.468, 23.044 ], [ 72.47, 23.044 ], [ 72.47, 23.046 ], [ 72.468, 23.046 ], [ 72.468, 23.044 ] ] ] } },
{ "type": "Feature", "properties": { "plot_id": "AD-AH-TP-00251", "land_use": "Agricultural", "fill_color": "#66bd63", "owner_name": "Owner 251", "area_sq_meters": 44355 }, "geometry": { "type": "Polygon", "coordinates": [ [ [ 72.47, 23.044 ], [ 72.472, 23.044 ], [ 72.472, 23.046 ], [ 72.47, 23.046 ], [ 72.47, 23.044 ] ] ] } },
{ "type": "Feature", "properties": { "plot_id": "AD-AH-TP-00252", "land_use": "Agricultural", "fill_color": "#66bd63", "owner_name": "Owner 252", "area_sq_meters": 44355 }, "geometry": { "type": "Polygon", "coordinates": [ [ [ 72.472, 23.044 ], [ 72.474, 23.044 ], [ 72.474, 23.046 ], [ 72.472, 23.046 ], [ 72.472, 23.044 ] ] ] } },
{ "type": "Feature", "properties": { "plot_id": "AD-AH-TP-00253", "land_use": "Commercial", "fill_color": "#d73027", "owner_name": "Owner 253", "area_sq_meters": 44355 }, "geometry": { "type": "Polygon", "coordinates": [ [ [ 72.474, 23.044 ], [ 72.476, 23.044 ], [ 72.476, 23.046 ], [ 72.474, 23.046 ], [ 72.474, 23.044 ] ] ] } },
{ "type": "Feature", "properties": { "plot_id": "AD-AH-TP-00254", "land_use": "Agricultural", "fill_color": "#66bd63", "owner_name": "Owner 254", "area_sq_meters": 44355 }, "geometry": { "type": "Polygon", "coordinates": [ [ [ 72.476, 23.044 ], [ 72.478, 23.044 ], [ 72.478, 23.046 ], [ 72.476, 23.046 ], [ 72.476, 23.044 ] ] ] } },
{ "type": "Feature", "properties": { "plot_id": "AD-AH-TP-00255", "land_use": "Residential", "fill_color": "#fee08b", "owner_name": "Owner 255", "area_sq_meters": 44355 }, "geometry": { "type": "Polygon", "coordinates": [ [ [ 72.478, 23.044 ], [ 72.48, 23.044 ], [ 72.48, 23.046 ], [ 72.478, 23.046 ], [ 72.478, 23.044 ] ] ] } },
{ "type": "Feature", "properties": { "plot_id": "AD-AH-TP-00256", "land_use": "Institutional", "fill_color": "#4575b4", "owner_name": "Owner 256", "area_sq_meters": 44355 }, "geometry": { "type": "Polygon", "coordinates": [ [ [ 72.48, 23.044 ], [ 72.482, 23.044 ], [ 72.482, 23.046 ], [ 72.48, 23.046 ], [ 72.48, 23.044 ] ] ] } },
{ "type": "Feature", "properties": { "plot_id": "AD-AH-TP-00257", "land_use": "Residential", "fill_color": "#fee08b", "owner_name": "Owner 257", "area_sq_meters": 44355 }, "geometry": { "type": "Polygon", "coordinates": [ [ [ 72.482, 23.044 ], [ 72.484, 23.044 ], [ 72.484, 23.046 ], [ 72.482, 23.046 ], [ 72.482, 23.044 ] ] ] } },
{ "type": "Feature", "properties": { "plot_id": "AD-AH-TP-00258", "land_use": "Agricultural", "fill_color": "#66bd63", "owner_name": "Owner 258", "area_sq_meters": 44355 }, "geometry": { "type": "Polygon", "coordinates": [ [ [ 72.484, 23.044 ], [ 72.486, 23.044 ], [ 72.486, 23.046 ], [ 72.484, 23.046 ], [ 72.484, 23.044 ] ] ] } },
{ "type": "Feature", "properties": { "plot_id": "AD-AH-TP-00259", "land_use": "Agricultural", "fill_color": "#66bd63", "owner_name": "Owner 259", "area_sq_meters": 44355 }, "geometry": { "type": "Polygon", "coordinates": [ [ [ 72.486, 23.044 ], [ 72.488, 23.044 ], [ 72.488, 23.046 ], [ 72.486, 23.046 ], [ 72.486, 23.044 ] ] ] } },
{ "type": "Feature", "properties": { "plot_id": "AD-AH-TP-00260", "land_use": "Institutional", "fill_color": "#4575b4", "owner_name": "Owner 260", "area_sq_meters": 44355 }, "geometry": { "type": "Polygon", "coordinates": [ [ [ 72.488, 23.044 ], [ 72.49, 23.044 ], [ 72.49, 23.046 ], [ 72.488, 23.046 ], [ 72.488, 23.044 ] ] ] } },
{ "type": "Feature", "properties": { "plot_id": "AD-AH-TP-00261", "land_use": "Agricultural", "fill_color": "#66bd63", "owner_name": "Owner 261", "area_sq_meters": 44355 }, "geometry": { "type": "Polygon", "coordinates": [ [ [ 72.45, 23.046 ], [ 72.452, 23.046 ], [ 72.452, 23.048 ], [ 72.45, 23.048 ], [ 72.45, 23.046 ] ] ] } },
{ "type": "Feature", "properties": { "plot_id": "AD-AH-TP-00262", "land_use": "Institutional", "fill_color": "#4575b4", "owner_name": "Owner 262", "area_sq_meters": 44355 }, "geometry": { "type": "Polygon", "coordinates": [ [ [ 72.452, 23.046 ], [ 72.454, 23.046 ], [ 72.454, 23.048 ], [ 72.452, 23.048 ], [ 72.452, 23.046 ] ] ] } },
{ "type": "Feature", "properties": { "plot_id": "AD-AH-TP-00263", "land_use": "Residential", "fill_color": "#fee08b", "owner_name": "Owner 263", "area_sq_meters": 44355 }, "geometry": { "type": "Polygon", "coordinates": [ [ [ 72.454, 23.046 ], [ 72.456, 23.046 ], [ 72.456, 23.048 ], [ 72.454, 23.048 ], [ 72.454, 23.046 ] ] ] } },
{ "type": "Feature", "properties": { "plot_id": "AD-AH-TP-00264", "land_use": "Agricultural", "fill_color": "#66bd63", "owner_name": "Owner 264", "area_sq_meters": 44355 }, "geometry": { "type": "Polygon", "coordinates": [ [ [ 72.456, 23.046 ], [ 72.458, 23.046 ], [ 72.458, 23.048 ], [ 72.456, 23.048 ], [ 72.456, 23.046 ] ] ] } },
{ "type": "Feature", "properties": { "plot_id": "AD-AH-TP-00265", "land_use": "Institutional", "fill_color": "#4575b4", "owner_name": "Owner 265", "area_sq_meters": 44355 }, "geometry": { "type": "Polygon", "coordinates": [ [ [ 72.458, 23.046 ], [ 72.46, 23.046 ], [ 72.46, 23.048 ], [ 72.458, 23.048 ], [ 72.458, 23.046 ] ] ] } },
{ "type": "Feature", "properties": { "plot_id": "AD-AH-TP-00266", "land_use": "Agricultural", "fill_color": "#66bd63", "owner_name": "Owner 266", "area_sq_meters": 44355 }, "geometry": { "type": "Polygon", "coordinates": [ [ [ 72.46, 23.046 ], [ 72.462, 23.046 ], [ 72.462, 23.048 ], [ 72.46, 23.048 ], [ 72.46, 23.046 ] ] ] } },
{ "type": "Feature", "properties": { "plot_id": "AD-AH-TP-00267", "land_use": "Agricultural", "fill_color": "#66bd63", "owner_name": "Owner 267", "area_sq_meters": 44355 }, "geometry": { "type": "Polygon", "coordinates": [ [ [ 72.462, 23.046 ], [ 72.464, 23.046 ], [ 72.464, 23.048 ], [ 72.462, 23.048 ], [ 72.462, 23.046 ] ] ] } },
{ "type": "Feature", "properties": { "plot_id": "AD-AH-TP-00268", "land_use": "Commercial", "fill_color": "#d73027", "owner_name": "Owner 268", "area_sq_meters": 44355 }, "geometry": { "type": "Polygon", "coordinates": [ [ [ 72.464, 23.046 ], [ 72.466, 23.046 ], [ 72.466, 23.048 ], [ 72.464, 23.048 ], [ 72.464, 23.046 ] ] ] } },
{ "type": "Feature", "properties": { "plot_id": "AD-AH-TP-00269", "land_use": "Institutional", "fill_color": "#4575b4", "owner_name": "Owner 269", "area_sq_meters": 44355 }, "geometry": { "type": "Polygon", "coordinates": [ [ [ 72.466, 23.046 ], [ 72.468, 23.046 ], [ 72.468, 23.048 ], [ 72.466, 23.048 ], [ 72.466, 23.046 ] ] ] } },
{ "type": "Feature", "properties": { "plot_id": "AD-AH-TP-00270", "land_use": "Agricultural", "fill_color": "#66bd63", "owner_name": "Owner 270", "area_sq_meters": 44355 }, "geometry": { "type": "Polygon", "coordinates": [ [ [ 72.468, 23.046 ], [ 72.47, 23.046 ], [ 72.47, 23.048 ], [ 72.468, 23.048 ], [ 72.468, 23.046 ] ] ] } },
{ "type": "Feature", "properties": { "plot_id": "AD-AH-TP-00271", "land_use": "Commercial", "fill_color": "#d73027", "owner_name": "Owner 271", "area_sq_meters": 44355 }, "geometry": { "type": "Polygon", "coordinates": [ [ [ 72.47, 23.046 ], [ 72.472, 23.046 ], [ 72.472, 23.048 ], [ 72.47, 23.048 ], [ 72.47, 23.046 ] ] ] } },
{ "type": "Feature", "properties": { "plot_id": "AD-AH-TP-00272", "land_use": "Agricultural", "fill_color": "#66bd63", "owner_name": "Owner 272", "area_sq_meters": 44355 }, "geometry": { "type": "Polygon", "coordinates": [ [ [ 72.472, 23.046 ], [ 72.474, 23.046 ], [ 72.474, 23.048 ], [ 72.472, 23.048 ], [ 72.472, 23.046 ] ] ] } },
{ "type": "Feature", "properties": { "plot_id": "AD-AH-TP-00273", "land_use": "Commercial", "fill_color": "#d73027", "owner_name": "Owner 273", "area_sq_meters": 44355 }, "geometry": { "type": "Polygon", "coordinates": [ [ [ 72.474, 23.046 ], [ 72.476, 23.046 ], [ 72.476, 23.048 ], [ 72.474, 23.048 ], [ 72.474, 23.046 ] ] ] } },
{ "type": "Feature", "properties": { "plot_id": "AD-AH-TP-00274", "land_use": "Institutional", "fill_color": "#4575b4", "owner_name": "Owner 274", "area_sq_meters": 44355 }, "geometry": { "type": "Polygon", "coordinates": [ [ [ 72.476, 23.046 ], [ 72.478, 23.046 ], [ 72.478, 23.048 ], [ 72.476, 23.048 ], [ 72.476, 23.046 ] ] ] } },
{ "type": "Feature", "properties": { "plot_id": "AD-AH-TP-00275", "land_use": "Agricultural", "fill_color": "#66bd63", "owner_name": "Owner 275", "area_sq_meters": 44355 }, "geometry": { "type": "Polygon", "coordinates": [ [ [ 72.478, 23.046 ], [ 72.48, 23.046 ], [ 72.48, 23.048 ], [ 72.478, 23.048 ], [ 72.478, 23.046 ] ] ] } },
{ "type": "Feature", "properties": { "plot_id": "AD-AH-TP-00276", "land_use": "Institutional", "fill_color": "#4575b4", "owner_name": "Owner 276", "area_sq_meters": 44355 }, "geometry": { "type": "Polygon", "coordinates": [ [ [ 72.48, 23.046 ], [ 72.482, 23.046 ], [ 72.482, 23.048 ], [ 72.48, 23.048 ], [ 72.48, 23.046 ] ] ] } },
{ "type": "Feature", "properties": { "plot_id": "AD-AH-TP-00277", "land_use": "Commercial", "fill_color": "#d73027", "owner_name": "Owner 277", "area_sq_meters": 44355 }, "geometry": { "type": "Polygon", "coordinates": [ [ [ 72.482, 23.046 ], [ 72.484, 23.046 ], [ 72.484, 23.048 ], [ 72.482, 23.048 ], [ 72.482, 23.046 ] ] ] } },
{ "type": "Feature", "properties": { "plot_id": "AD-AH-TP-00278", "land_use": "Agricultural", "fill_color": "#66bd63", "owner_name": "Owner 278", "area_sq_meters": 44355 }, "geometry": { "type": "Polygon", "coordinates": [ [ [ 72.484, 23.046 ], [ 72.486, 23.046 ], [ 72.486, 23.048 ], [ 72.484, 23.048 ], [ 72.484, 23.046 ] ] ] } },
{ "type": "Feature", "properties": { "plot_id": "AD-AH-TP-00279", "land_use": "Agricultural", "fill_color": "#66bd63", "owner_name": "Owner 279", "area_sq_meters": 44355 }, "geometry": { "type": "Polygon", "coordinates": [ [ [ 72.486, 23.046 ], [ 72.488, 23.046 ], [ 72.488, 23.048 ], [ 72.486, 23.048 ], [ 72.486, 23.046 ] ] ] } },
{ "type": "Feature", "properties": { "plot_id": "AD-AH-TP-00280", "land_use": "Institutional", "fill_color": "#4575b4", "owner_name": "Owner 280", "area_sq_meters": 44355 }, "geometry": { "type": "Polygon", "coordinates": [ [ [ 72.488, 23.046 ], [ 72.49, 23.046 ], [ 72.49, 23.048 ], [ 72.488, 23.048 ], [ 72.488, 23.046 ] ] ] } },
{ "type": "Feature", "properties": { "plot_id": "AD-AH-TP-00281", "land_use": "Residential", "fill_color": "#fee08b", "owner_name": "Owner 281", "area_sq_meters": 44355 }, "geometry": { "type": "Polygon", "coordinates": [ [ [ 72.45, 23.048 ], [ 72.452, 23.048 ], [ 72.452, 23.05 ], [ 72.45, 23.05 ], [ 72.45, 23.048 ] ] ] } },
{ "type": "Feature", "properties": { "plot_id": "AD-AH-TP-00282", "land_use": "Institutional", "fill_color": "#4575b4", "owner_name": "Owner 282", "area_sq_meters": 44355 }, "geometry": { "type": "Polygon", "coordinates": [ [ [ 72.452, 23.048 ], [ 72.454, 23.048 ], [ 72.454, 23.05 ], [ 72.452, 23.05 ], [ 72.452, 23.048 ] ] ] } },
{ "type": "Feature", "properties": { "plot_id": "AD-AH-TP-00283", "land_use": "Commercial", "fill_color": "#d73027", "owner_name": "Owner 283", "area_sq_meters": 44355 }, "geometry": { "type": "Polygon", "coordinates": [ [ [ 72.454, 23.048 ], [ 72.456, 23.048 ], [ 72.456, 23.05 ], [ 72.454, 23.05 ], [ 72.454, 23.048 ] ] ] } },
{ "type": "Feature", "properties": { "plot_id": "AD-AH-TP-00284", "land_use": "Institutional", "fill_color": "#4575b4", "owner_name": "Owner 284", "area_sq_meters": 44355 }, "geometry": { "type": "Polygon", "coordinates": [ [ [ 72.456, 23.048 ], [ 72.458, 23.048 ], [ 72.458, 23.05 ], [ 72.456, 23.05 ], [ 72.456, 23.048 ] ] ] } },
{ "type": "Feature", "properties": { "plot_id": "AD-AH-TP-00285", "land_use": "Commercial", "fill_color": "#d73027", "owner_name": "Owner 285", "area_sq_meters": 44355 }, "geometry": { "type": "Polygon", "coordinates": [ [ [ 72.458, 23.048 ], [ 72.46, 23.048 ], [ 72.46, 23.05 ], [ 72.458, 23.05 ], [ 72.458, 23.048 ] ] ] } },
{ "type": "Feature", "properties": { "plot_id": "AD-AH-TP-00286", "land_use": "Institutional", "fill_color": "#4575b4", "owner_name": "Owner 286", "area_sq_meters": 44355 }, "geometry": { "type": "Polygon", "coordinates": [ [ [ 72.46, 23.048 ], [ 72.462, 23.048 ], [ 72.462, 23.05 ], [ 72.46, 23.05 ], [ 72.46, 23.048 ] ] ] } },
{ "type": "Feature", "properties": { "plot_id": "AD-AH-TP-00287", "land_use": "Institutional", "fill_color": "#4575b4", "owner_name": "Owner 287", "area_sq_meters": 44355 }, "geometry": { "type": "Polygon", "coordinates": [ [ [ 72.462, 23.048 ], [ 72.464, 23.048 ], [ 72.464, 23.05 ], [ 72.462, 23.05 ], [ 72.462, 23.048 ] ] ] } },
{ "type": "Feature", "properties": { "plot_id": "AD-AH-TP-00288", "land_use": "Residential", "fill_color": "#fee08b", "owner_name": "Owner 288", "area_sq_meters": 44355 }, "geometry": { "type": "Polygon", "coordinates": [ [ [ 72.464, 23.048 ], [ 72.466, 23.048 ], [ 72.466, 23.05 ], [ 72.464, 23.05 ], [ 72.464, 23.048 ] ] ] } },
{ "type": "Feature", "properties": { "plot_id": "AD-AH-TP-00289", "land_use": "Agricultural", "fill_color": "#66bd63", "owner_name": "Owner 289", "area_sq_meters": 44355 }, "geometry": { "type": "Polygon", "coordinates": [ [ [ 72.466, 23.048 ], [ 72.468, 23.048 ], [ 72.468, 23.05 ], [ 72.466, 23.05 ], [ 72.466, 23.048 ] ] ] } },
{ "type": "Feature", "properties": { "plot_id": "AD-AH-TP-00290", "land_use": "Agricultural", "fill_color": "#66bd63", "owner_name": "Owner 290", "area_sq_meters": 44355 }, "geometry": { "type": "Polygon", "coordinates": [ [ [ 72.468, 23.048 ], [ 72.47, 23.048 ], [ 72.47, 23.05 ], [ 72.468, 23.05 ], [ 72.468, 23.048 ] ] ] } },
{ "type": "Feature", "properties": { "plot_id": "AD-AH-TP-00291", "land_use": "Institutional", "fill_color": "#4575b4", "owner_name": "Owner 291", "area_sq_meters": 44355 }, "geometry": { "type": "Polygon", "coordinates": [ [ [ 72.47, 23.048 ], [ 72.472, 23.048 ], [ 72.472, 23.05 ], [ 72.47, 23.05 ], [ 72.47, 23.048 ] ] ] } },
{ "type": "Feature", "properties": { "plot_id": "AD-AH-TP-00292", "land_use": "Residential", "fill_color": "#fee08b", "owner_name": "Owner 292", "area_sq_meters": 44355 }, "geometry": { "type": "Polygon", "coordinates": [ [ [ 72.472, 23.048 ], [ 72.474, 23.048 ], [ 72.474, 23.05 ], [ 72.472, 23.05 ], [ 72.472, 23.048 ] ] ] } },
{ "type": "Feature", "properties": { "plot_id": "AD-AH-TP-00293", "land_use": "Institutional", "fill_color": "#4575b4", "owner_name": "Owner 293", "area_sq_meters": 44355 }, "geometry": { "type": "Polygon", "coordinates": [ [ [ 72.474, 23.048 ], [ 72.476, 23.048 ], [ 72.476, 23.05 ], [ 72.474, 23.05 ], [ 72.474, 23.048 ] ] ] } },
{ "type": "Feature", "properties": { "plot_id": "AD-AH-TP-00294", "land_use": "Commercial", "fill_color": "#d73027", "owner_name": "Owner 294", "area_sq_meters": 44355 }, "geometry": { "type": "Polygon", "coordinates": [ [ [ 72.476, 23.048 ], [ 72.478, 23.048 ], [ 72.478, 23.05 ], [ 72.476, 23.05 ], [ 72.476, 23.048 ] ] ] } },
{ "type": "Feature", "properties": { "plot_id": "AD-AH-TP-00295", "land_use": "Institutional", "fill_color": "#4575b4", "owner_name": "Owner 295", "area_sq_meters": 44355 }, "geometry": { "type": "Polygon", "coordinates": [ [ [ 72.478, 23.048 ], [ 72.48, 23.048 ], [ 72.48, 23.05 ], [ 72.478, 23.05 ], [ 72.478, 23.048 ] ] ] } },
{ "type": "Feature", "properties": { "plot_id": "AD-AH-TP-00296", "land_use": "Agricultural", "fill_color": "#66bd63", "owner_name": "Owner 296", "area_sq_meters": 44355 }, "geometry": { "type": "Polygon", "coordinates": [ [ [ 72.48, 23.048 ], [ 72.482, 23.048 ], [ 72.482, 23.05 ], [ 72.48, 23.05 ], [ 72.48, 23.048 ] ] ] } },
{ "type": "Feature", "properties": { "plot_id": "AD-AH-TP-00297", "land_use": "Institutional", "fill_color": "#4575b4", "owner_name": "Owner 297", "area_sq_meters": 44355 }, "geometry": { "type": "Polygon", "coordinates": [ [ [ 72.482, 23.048 ], [ 72.484, 23.048 ], [ 72.484, 23.05 ], [ 72.482, 23.05 ], [ 72.482, 23.048 ] ] ] } },
{ "type": "Feature", "properties": { "plot_id": "AD-AH-TP-00298", "land_use": "Residential", "fill_color": "#fee08b", "owner_name": "Owner 298", "area_sq_meters": 44355 }, "geometry": { "type": "Polygon", "coordinates": [ [ [ 72.484, 23.048 ], [ 72.486, 23.048 ], [ 72.486, 23.05 ], [ 72.484, 23.05 ], [ 72.484, 23.048 ] ] ] } },
{ "type": "Feature", "properties": { "plot_id": "AD-AH-TP-00299", "land_use": "Agricultural", "fill_color": "#66bd63", "owner_name": "Owner 299", "area_sq_meters": 44355 }, "geometry": { "type": "Polygon", "coordinates": [ [ [ 72.486, 23.048 ], [ 72.488, 23.048 ], [ 72.488, 23.05 ], [ 72.486, 23.05 ], [ 72.486, 23.048 ] ] ] } },
{ "type": "Feature", "properties": { "plot_id": "AD-AH-TP-00300", "land_use": "Residential", "fill_color": "#fee08b", "owner_name": "Owner 300", "area_sq_meters": 44355 }, "geometry": { "type": "Polygon", "coordinates": [ [ [ 72.488, 23.048 ], [ 72.49, 23.048 ], [ 72.49, 23.05 ], [ 72.488, 23.05 ], [ 72.488, 23.048 ] ] ] } }
]
}
