{
  "type": "FeatureCollection",
  "generator": "overpass-turbo",
  "copyright": "The data included in this document is from www.openstreetmap.org. The data is made available under ODbL.",
  "timestamp": "2026-08-20T13:12:59Z",
  "features": [
    {
      "type": "Feature",
      "properties": {
        "@id": "relation/9283027",
        "boundary": "protected_area",
        "leisure": "nature_reserve",
        "name": "Thol Lake WLS",
        "protect_class": "4",
        "type": "boundary",
        "wikidata": "Q129176824",
        "wikipedia": "en:Thol Lake Bird Sanctuary"
      },
      "geometry": {
        "type": "Polygon",
        "coordinates": [
          [
            [
              72.4219179,
              23.1365222
            ],
            [
              72.4268102,
              23.1430632
            ],
            [
              72.427454,
              23.1455098
            ],
            [
              72.4275183,
              23.1491204
            ],
            [
              72.427808,
              23.1501365
            ],
            [
              72.4283123,
              23.151123
            ],
            [
              72.4270892,
              23.1523758
            ],
            [
              72.425791,
              23.1531551
            ],
            [
              72.4247825,
              23.1536089
            ],
            [
              72.4235594,
              23.1535694
            ],
            [
              72.422229,
              23.1534807
            ],
            [
              72.4210918,
              23.1534807
            ],
            [
              72.4199223,
              23.1538259
            ],
            [
              72.4189997,
              23.154112
            ],
            [
              72.418828,
              23.1526027
            ],
            [
              72.4183452,
              23.1499589
            ],
            [
              72.4175942,
              23.1493966
            ],
            [
              72.4167681,
              23.1486173
            ],
            [
              72.4143326,
              23.1478675
            ],
            [
              72.4130666,
              23.1477097
            ],
            [
              72.4120581,
              23.1476308
            ],
            [
              72.4113929,
              23.1472855
            ],
            [
              72.4110281,
              23.146812
            ],
            [
              72.4115538,
              23.1461806
            ],
            [
              72.4132061,
              23.144543
            ],
            [
              72.4127769,
              23.1446022
            ],
            [
              72.4123692,
              23.14476
            ],
            [
              72.4112963,
              23.14549
            ],
            [
              72.4104595,
              23.1458255
            ],
            [
              72.4091291,
              23.1458452
            ],
            [
              72.4085068,
              23.1465358
            ],
            [
              72.4083566,
              23.1469106
            ],
            [
              72.408421,
              23.1473052
            ],
            [
              72.4080133,
              23.1474631
            ],
            [
              72.4069834,
              23.1482523
            ],
            [
              72.4065542,
              23.1482326
            ],
            [
              72.4052667,
              23.1479366
            ],
            [
              72.4043655,
              23.1472461
            ],
            [
              72.403636,
              23.1463976
            ],
            [
              72.4029493,
              23.1458847
            ],
            [
              72.4018121,
              23.1446416
            ],
            [
              72.401061,
              23.1442076
            ],
            [
              72.4006533,
              23.144247
            ],
            [
              72.4014044,
              23.1453322
            ],
            [
              72.4017262,
              23.1456282
            ],
            [
              72.4020266,
              23.1463976
            ],
            [
              72.402842,
              23.1474236
            ],
            [
              72.4029922,
              23.1478182
            ],
            [
              72.4027562,
              23.1481734
            ],
            [
              72.4021125,
              23.1487061
            ],
            [
              72.4017262,
              23.1488639
            ],
            [
              72.4008894,
              23.1488837
            ],
            [
              72.4004602,
              23.1488245
            ],
            [
              72.3972845,
              23.1472954
            ],
            [
              72.3945272,
              23.1464174
            ],
            [
              72.3944628,
              23.1446811
            ],
            [
              72.3940229,
              23.1441681
            ],
            [
              72.3933685,
              23.1441385
            ],
            [
              72.3930895,
              23.1440004
            ],
            [
              72.39295,
              23.1430336
            ],
            [
              72.3930144,
              23.1391564
            ],
            [
              72.3932934,
              23.134993
            ],
            [
              72.3935401,
              23.1347167
            ],
            [
              72.3939586,
              23.1346181
            ],
            [
              72.3966944,
              23.1349042
            ],
            [
              72.3971772,
              23.1348154
            ],
            [
              72.4006855,
              23.1334933
            ],
            [
              72.4016297,
              23.1332565
            ],
            [
              72.4038505,
              23.1329408
            ],
            [
              72.4093222,
              23.1323883
            ],
            [
              72.4169236,
              23.1302227
            ],
            [
              72.4173206,
              23.1302128
            ],
            [
              72.4175674,
              23.1303361
            ],
            [
              72.4219179,
              23.1365222
            ]
          ]
        ]
      },
      "id": "relation/9283027"
    },
    {
      "type": "Feature",
      "properties": {
        "@id": "way/244342863",
        "addr:city": "Gandhinagar",
        "addr:postcode": "382007",
        "landuse": "forest",
        "name": "Indroda Nature Park",
        "tourism": "zoo",
        "wikidata": "Q6027142",
        "wikimedia_commons": "Category:Indroda Dinosaur and Fossil Park",
        "wikipedia": "en:Indroda Dinosaur and Fossil Park"
      },
      "geometry": {
        "type": "Polygon",
        "coordinates": [
          [
            [
              72.6426251,
              23.1963391
            ],
            [
              72.643001,
              23.1908916
            ],
            [
              72.6476518,
              23.1913631
            ],
            [
              72.6479271,
              23.1863524
            ],
            [
              72.6532888,
              23.1854618
            ],
            [
              72.6561699,
              23.1857544
            ],
            [
              72.6563837,
              23.1869023
            ],
            [
              72.6570017,
              23.188788
            ],
            [
              72.6579459,
              23.1914862
            ],
            [
              72.6572193,
              23.1916222
            ],
            [
              72.6584286,
              23.1946792
            ],
            [
              72.6581478,
              23.1947484
            ],
            [
              72.6539392,
              23.1959248
            ],
            [
              72.6550061,
              23.1992059
            ],
            [
              72.6535544,
              23.2001456
            ],
            [
              72.6502806,
              23.1986702
            ],
            [
              72.6449867,
              23.1969211
            ],
            [
              72.6426251,
              23.1963391
            ]
          ]
        ]
      },
      "id": "way/244342863"
    },
    {
      "type": "Feature",
      "properties": {
        "@id": "way/338752478",
        "description": "Explore the natural nature instead of artificial one on the bank of Sabarmati river, but be aware it might scare you up. Full of neelgay, monkeys, peacocks, rare birds accompied by manmade structures like camp site, amphitheatre, butterfly park.",
        "landuse": "forest",
        "name": "Aranya Udhyan",
        "name:en": "Aranya Park",
        "opening_hours": "Tu-Su 08:30-17:30",
        "operator": "GEER Foundation"
      },
      "geometry": {
        "type": "Polygon",
        "coordinates": [
          [
            [
              72.6632846,
              23.1876342
            ],
            [
              72.6662976,
              23.1873014
            ],
            [
              72.6721884,
              23.1865466
            ],
            [
              72.6751857,
              23.1863597
            ],
            [
              72.6758078,
              23.1876402
            ],
            [
              72.6765078,
              23.1889
            ],
            [
              72.6779835,
              23.1913481
            ],
            [
              72.679009,
              23.1924744
            ],
            [
              72.6801666,
              23.1937733
            ],
            [
              72.6805745,
              23.194464
            ],
            [
              72.6837425,
              23.1999221
            ],
            [
              72.6767759,
              23.2031492
            ],
            [
              72.6744463,
              23.2029322
            ],
            [
              72.6740835,
              23.2027648
            ],
            [
              72.6736593,
              23.2026092
            ],
            [
              72.6734575,
              23.2025246
            ],
            [
              72.6734297,
              23.2021231
            ],
            [
              72.6732825,
              23.2017274
            ],
            [
              72.6732092,
              23.201701
            ],
            [
              72.6726513,
              23.2015432
            ],
            [
              72.6724271,
              23.2012977
            ],
            [
              72.6721696,
              23.2002263
            ],
            [
              72.6709108,
              23.2003603
            ],
            [
              72.6700035,
              23.1977621
            ],
            [
              72.6694026,
              23.197841
            ],
            [
              72.6691934,
              23.1970175
            ],
            [
              72.6700517,
              23.1968745
            ],
            [
              72.6700464,
              23.1967069
            ],
            [
              72.6691076,
              23.1967414
            ],
            [
              72.6688611,
              23.1957284
            ],
            [
              72.668348,
              23.1936531
            ],
            [
              72.6636341,
              23.1951687
            ],
            [
              72.663299,
              23.1952764
            ],
            [
              72.6622712,
              23.1940961
            ],
            [
              72.6615961,
              23.1926788
            ],
            [
              72.6613365,
              23.1921336
            ],
            [
              72.6608173,
              23.1900159
            ],
            [
              72.6607515,
              23.1888486
            ],
            [
              72.6606836,
              23.1876714
            ],
            [
              72.6616045,
              23.1877241
            ],
            [
              72.6632846,
              23.1876342
            ]
          ]
        ]
      },
      "id": "way/338752478"
    },
    {
      "type": "Feature",
      "properties": {
        "@id": "way/1163653151",
        "landuse": "forest"
      },
      "geometry": {
        "type": "Polygon",
        "coordinates": [
          [
            [
              72.5360719,
              23.0352379
            ],
            [
              72.5364871,
              23.0359552
            ],
            [
              72.5368687,
              23.0367413
            ],
            [
              72.5365623,
              23.0369456
            ],
            [
              72.5364672,
              23.0367826
            ],
            [
              72.5360096,
              23.037043
            ],
            [
              72.5358627,
              23.0371471
            ],
            [
              72.5355583,
              23.0365892
            ],
            [
              72.5350377,
              23.0367864
            ],
            [
              72.5348489,
              23.0364389
            ],
            [
              72.5343334,
              23.0365469
            ],
            [
              72.5338435,
              23.0367864
            ],
            [
              72.5336649,
              23.0364953
            ],
            [
              72.5340476,
              23.0362839
            ],
            [
              72.5341293,
              23.0358377
            ],
            [
              72.533818,
              23.0353023
            ],
            [
              72.5344028,
              23.0350147
            ],
            [
              72.5346624,
              23.0356475
            ],
            [
              72.5354898,
              23.0354479
            ],
            [
              72.5360719,
              23.0352379
            ]
          ]
        ]
      },
      "id": "way/1163653151"
    },
    {
      "type": "Feature",
      "properties": {
        "@id": "way/1328734058",
        "landuse": "forest"
      },
      "geometry": {
        "type": "Polygon",
        "coordinates": [
          [
            [
              72.6013545,
              23.1244108
            ],
            [
              72.6007196,
              23.1246885
            ],
            [
              72.6006749,
              23.1245314
            ],
            [
              72.6008898,
              23.1239036
            ],
            [
              72.6014119,
              23.1240191
            ],
            [
              72.6013663,
              23.1243302
            ],
            [
              72.6013545,
              23.1244108
            ]
          ]
        ]
      },
      "id": "way/1328734058"
    },
    {
      "type": "Feature",
      "properties": {
        "@id": "way/1328734060",
        "landuse": "forest"
      },
      "geometry": {
        "type": "Polygon",
        "coordinates": [
          [
            [
              72.6013663,
              23.1243302
            ],
            [
              72.6014119,
              23.1240191
            ],
            [
              72.6014561,
              23.1236828
            ],
            [
              72.6016581,
              23.1232165
            ],
            [
              72.6017235,
              23.1230398
            ],
            [
              72.6017572,
              23.1229086
            ],
            [
              72.6017796,
              23.1228105
            ],
            [
              72.6036454,
              23.1234553
            ],
            [
              72.6026214,
              23.1238797
            ],
            [
              72.6013545,
              23.1244108
            ],
            [
              72.6013663,
              23.1243302
            ]
          ]
        ]
      },
      "id": "way/1328734060"
    }
  ]
}